Licence No.,Licensee,Street#,Street Name,Unit,City,Postal Code,Bus. Phone,Operating As,Ward,Category
P90-4313323,OASIS ADDICTION RECOVERY SOCIETY,128,EIGHTH ST,,"TORONTO, ON",M8V 3C4,(416) 751-0553,,6,CLOTHING DROP BOX LOCATION PERMIT
P90-4313326,OASIS ADDICTION RECOVERY SOCIETY,243,ALBERTA AVE,,"TORONTO, ON",M6C 3X4,(416) 751-0553,,17,CLOTHING DROP BOX LOCATION PERMIT
P90-4313329,OASIS ADDICTION RECOVERY SOCIETY,140,ANTIBES DR,,"TORONTO, ON",M2R 3J3,(416) 751-0553,,10,CLOTHING DROP BOX LOCATION PERMIT
P90-4313330,OASIS ADDICTION RECOVERY SOCIETY,265,ARMADALE AVE,,"TORONTO, ON",M6S 3X5,(416) 751-0553,,13,CLOTHING DROP BOX LOCATION PERMIT
P90-4313333,OASIS ADDICTION RECOVERY SOCIETY,80,ARBORETUM LANE,,"TORONTO, ON",M3J 1P3,(416) 751-0553,,8,CLOTHING DROP BOX LOCATION PERMIT
P90-4313334,,90,ATKINSON RD,,"TORONTO, ON",M3J 2S5,(416) 751-0553,,8,CLOTHING DROP BOX LOCATION PERMIT
P90-4313337,OASIS ADDICTION RECOVERY SOCIETY,494,AVENUE RD,,"TORONTO, ON",M4V 2J5,(416) 751-0553,,22,CLOTHING DROP BOX LOCATION PERMIT
P90-4313338,OASIS ADDICTION RECOVERY SOCIETY,25,BAMBURGH CIR,,"TORONTO, ON",M1W 3W2,(416) 751-0553,,39,CLOTHING DROP BOX LOCATION PERMIT
P90-4313340,OASIS ADDICTION RECOVERY SOCIETY,75,BAMBURGH CIR,,"TORONTO, ON",M1W 3W1,(416) 751-0553,,39,CLOTHING DROP BOX LOCATION PERMIT
P90-4313341,OASIS ADDICTION RECOVERY SOCIETY,125,BAMBURGH CIR,,"TORONTO, ON",M1W 3G4,(416) 751-0553,,39,CLOTHING DROP BOX LOCATION PERMIT
P90-4313342,OASIS ADDICTION RECOVERY SOCIETY,186,BARTLEY DR,,"TORONTO, ON",M4A 1E1,(416) 751-0553,,34,CLOTHING DROP BOX LOCATION PERMIT
P90-4313343,OASIS ADDICTION RECOVERY SOCIETY,761,BAY ST,,"TORONTO, ON",M5G 2R2,(416) 751-0553,,27,CLOTHING DROP BOX LOCATION PERMIT
P90-4313344,OASIS ADDICTION RECOVERY SOCIETY,763,BAY ST,,"TORONTO, ON",M5G 2R3,(416) 751-0553,,27,CLOTHING DROP BOX LOCATION PERMIT
P90-4313345,OASIS ADDICTION RECOVERY SOCIETY,925,BAY ST,,"TORONTO, ON",M5S 3L4,(416) 751-0553,,27,CLOTHING DROP BOX LOCATION PERMIT
P90-4313347,OASIS ADDICTION RECOVERY SOCIETY,385,PACIFIC AVE,,"TORONTO, ON",M6P 2R2,(416) 751-0553,,13,CLOTHING DROP BOX LOCATION PERMIT
P90-4313349,OASIS ADDICTION RECOVERY SOCIETY,3,PEMBERTON AVE,,"TORONTO, ON",M2M 4M1,(416) 751-0553,,24,CLOTHING DROP BOX LOCATION PERMIT
P90-4313350,OASIS ADDICTION RECOVERY SOCIETY,991,PAPE AVE,,"TORONTO, ON",M4K 3V6,(416) 751-0553,,29,CLOTHING DROP BOX LOCATION PERMIT
P90-4313354,OASIS ADDICTION RECOVERY SOCIETY,1081,PAPE AVE,,"TORONTO, ON",M4K 3W4,(416) 751-0553,,29,CLOTHING DROP BOX LOCATION PERMIT
P90-4313355,OASIS ADDICTION RECOVERY SOCIETY,110,PARKWAY FOREST DR,,"TORONTO, ON",M2J 1L7,(416) 751-0553,,33,CLOTHING DROP BOX LOCATION PERMIT
P90-4313371,OASIS ADDICTION RECOVERY SOCIETY,1080,FINCH AVE E,,"TORONTO, ON",M2J 2X2,(416) 751-0553,,24,CLOTHING DROP BOX LOCATION PERMIT
P90-4313372,OASIS ADDICTION RECOVERY SOCIETY,1100,FINCH AVE E,,"TORONTO, ON",M2J 2X4,(416) 751-0553,,24,CLOTHING DROP BOX LOCATION PERMIT
P90-4313374,OASIS ADDICTION RECOVERY SOCIETY,3840,FINCH AVE E,,"TORONTO, ON",M1T 3T4,(416) 751-0553,,39,CLOTHING DROP BOX LOCATION PERMIT
P90-4313375,OASIS ADDICTION RECOVERY SOCIETY,3840,FINCH AVE E,,"TORONTO, ON",M1T 3T4,(416) 751-0553,,39,CLOTHING DROP BOX LOCATION PERMIT
P90-4313377,OASIS ADDICTION RECOVERY SOCIETY,605,FINCH AVE W,,"TORONTO, ON",M2R 1P1,(416) 751-0553,,10,CLOTHING DROP BOX LOCATION PERMIT
P90-4313379,OASIS ADDICTION RECOVERY SOCIETY,2437,FINCH AVE W,,"TORONTO, ON",M9M 2E7,(416) 751-0553,,7,CLOTHING DROP BOX LOCATION PERMIT
P90-4313386,OASIS ADDICTION RECOVERY SOCIETY,20,FOREST MANOR RD,,"TORONTO, ON",M2J 1M2,(416) 751-0553,,33,CLOTHING DROP BOX LOCATION PERMIT
P90-4313389,OASIS ADDICTION RECOVERY SOCIETY,207,FRONT ST E,,"TORONTO, ON",M5A 1E8,(416) 751-0553,,28,CLOTHING DROP BOX LOCATION PERMIT
P90-4313390,OASIS ADDICTION RECOVERY SOCIETY,400,FRONT ST W,,"TORONTO, ON",M5V 1B5,(416) 751-0553,,20,CLOTHING DROP BOX LOCATION PERMIT
P90-4313391,OASIS ADDICTION RECOVERY SOCIETY,45,GENERATION BLVD,,"TORONTO, ON",M1B 2K5,(416) 751-0553,,44,CLOTHING DROP BOX LOCATION PERMIT
P90-4313394,OASIS ADDICTION RECOVERY SOCIETY,47,GENERATION BLVD,,"TORONTO, ON",M1B 2K6,(416) 751-0553,,44,CLOTHING DROP BOX LOCATION PERMIT
P90-4313395,OASIS ADDICTION RECOVERY SOCIETY,95,GENERATION BLVD,,"TORONTO, ON",M1B 2K7,(416) 751-0553,,44,CLOTHING DROP BOX LOCATION PERMIT
P90-4313396,OASIS ADDICTION RECOVERY SOCIETY,115,GENERATION BLVD,,"TORONTO, ON",M1B 2K5,(416) 751-0553,,44,CLOTHING DROP BOX LOCATION PERMIT
P90-4313398,OASIS ADDICTION RECOVERY SOCIETY,11,GOLDFINCH CRT,,"TORONTO, ON",M2R 2C2,(416) 751-0553,,10,CLOTHING DROP BOX LOCATION PERMIT
P90-4313404,OASIS ADDICTION RECOVERY SOCIETY,100,GRANGEWAY AVE,,"TORONTO, ON",M1H 0A2,(416) 751-0553,,38,CLOTHING DROP BOX LOCATION PERMIT
P90-4313405,OASIS ADDICTION RECOVERY SOCIETY,30,GREENFIELD AVE,,"TORONTO, ON",M2N 6N3,(416) 751-0553,,23,CLOTHING DROP BOX LOCATION PERMIT
P90-4313406,OASIS ADDICTION RECOVERY SOCIETY,15,GREENVIEW AVE,,"TORONTO, ON",M2M 4M7,(416) 751-0553,,23,CLOTHING DROP BOX LOCATION PERMIT
P90-4313408,OASIS ADDICTION RECOVERY SOCIETY,11,GRENVIEW BLVD N,,"TORONTO, ON",M8X 2J9,(416) 751-0553,,5,CLOTHING DROP BOX LOCATION PERMIT
P90-4313410,OASIS ADDICTION RECOVERY SOCIETY,123,GUILDWOOD PKY,,"TORONTO, ON",M1E 4V2,(416) 751-0553,,43,CLOTHING DROP BOX LOCATION PERMIT
P90-4313414,OASIS ADDICTION RECOVERY SOCIETY,120,HAMMERSMITH AVE,,"TORONTO, ON",M4E 2W5,(416) 751-0553,,32,CLOTHING DROP BOX LOCATION PERMIT
P90-4313416,OASIS ADDICTION RECOVERY SOCIETY,2275,BAYVIEW AVE,,"TORONTO, ON",M4N 3M6,(416) 751-0553,,25,CLOTHING DROP BOX LOCATION PERMIT
P90-4313417,OASIS ADDICTION RECOVERY SOCIETY,2545,BAYVIEW AVE,,"TORONTO, ON",M2L 1B4,(416) 751-0553,,25,CLOTHING DROP BOX LOCATION PERMIT
P90-4313418,OASIS ADDICTION RECOVERY SOCIETY,3300,BAYVIEW AVE,,"TORONTO, ON",M2M 3R7,(416) 751-0553,,24,CLOTHING DROP BOX LOCATION PERMIT
P90-4313421,OASIS ADDICTION RECOVERY SOCIETY,23,BEDFORD PARK AVE,,"TORONTO, ON",M5M 1H8,(416) 751-0553,,16,CLOTHING DROP BOX LOCATION PERMIT
P90-4313422,OASIS ADDICTION RECOVERY SOCIETY,151,BEECROFT RD,,"TORONTO, ON",M2N 7C4,(416) 751-0553,,23,CLOTHING DROP BOX LOCATION PERMIT
P90-4313424,OASIS ADDICTION RECOVERY SOCIETY,1530,BIRCHMOUNT RD,,"TORONTO, ON",M1P 2G9,(416) 751-0553,,37,CLOTHING DROP BOX LOCATION PERMIT
P90-4313425,OASIS ADDICTION RECOVERY SOCIETY,2340,BIRCHMOUNT RD,,"TORONTO, ON",M1T 2M3,(416) 751-0553,,40,CLOTHING DROP BOX LOCATION PERMIT
P90-4313426,OASIS ADDICTION RECOVERY SOCIETY,2950,BIRCHMOUNT RD,,"TORONTO, ON",M1W 3G5,(416) 751-0553,,39,CLOTHING DROP BOX LOCATION PERMIT
P90-4313431,OASIS ADDICTION RECOVERY SOCIETY,10,HARLANDALE AVE,,"TORONTO, ON",M2N 1P1,(416) 751-0553,,23,CLOTHING DROP BOX LOCATION PERMIT
P90-4313432,OASIS ADDICTION RECOVERY SOCIETY,18,HILLCREST AVE,,"TORONTO, ON",M2N 6T5,(416) 751-0553,,23,CLOTHING DROP BOX LOCATION PERMIT
P90-4313433,OASIS ADDICTION RECOVERY SOCIETY,2187,BLOOR ST W,,"TORONTO, ON",M6S 1N2,(416) 751-0553,,13,CLOTHING DROP BOX LOCATION PERMIT
P90-4313434,OASIS ADDICTION RECOVERY SOCIETY,3220,BLOOR ST W,,"TORONTO, ON",M8X 1E1,(416) 751-0553,,5,CLOTHING DROP BOX LOCATION PERMIT
P90-4313437,OASIS ADDICTION RECOVERY SOCIETY,686,BROADVIEW AVE,,"TORONTO, ON",M4K 2P1,(416) 751-0553,,30,CLOTHING DROP BOX LOCATION PERMIT
P90-4313439,OASIS ADDICTION RECOVERY SOCIETY,246,BROOKE AVE,,"TORONTO, ON",M5M 2K8,(416) 751-0553,,16,CLOTHING DROP BOX LOCATION PERMIT
P90-4313440,OASIS ADDICTION RECOVERY SOCIETY,12,CANTERBURY PL,,"TORONTO, ON",M2N 6N8,(416) 751-0553,,23,CLOTHING DROP BOX LOCATION PERMIT
P90-4313441,OASIS ADDICTION RECOVERY SOCIETY,58,CARNFORTH RD,,"TORONTO, ON",M4A 2K7,(416) 751-0553,,34,CLOTHING DROP BOX LOCATION PERMIT
P90-4313443,OASIS ADDICTION RECOVERY SOCIETY,20,CASTLEFIELD AVE,,"TORONTO, ON",M4R 1G7,(416) 751-0553,,16,CLOTHING DROP BOX LOCATION PERMIT
P90-4313445,OASIS ADDICTION RECOVERY SOCIETY,111,CEDARVALE AVE,,"TORONTO, ON",M4C 4J9,(416) 751-0553,,32,CLOTHING DROP BOX LOCATION PERMIT
P90-4313446,OASIS ADDICTION RECOVERY SOCIETY,110,PARKWAY FOREST DR,,"TORONTO, ON",M2J 1L7,(416) 751-0553,,33,CLOTHING DROP BOX LOCATION PERMIT
P90-4313447,OASIS ADDICTION RECOVERY SOCIETY,2,PASSY CRES,,"TORONTO, ON",M3J 3K8,(416) 751-0553,,8,CLOTHING DROP BOX LOCATION PERMIT
P90-4313448,OASIS ADDICTION RECOVERY SOCIETY,205,HUMBER COLLEGE BLVD,,"TORONTO, ON",M9W 5L7,(416) 751-0553,,1,CLOTHING DROP BOX LOCATION PERMIT
P90-4313449,OASIS ADDICTION RECOVERY SOCIETY,2195,JANE ST,,"TORONTO, ON",M3M 1A3,(416) 751-0553,,9,CLOTHING DROP BOX LOCATION PERMIT
P90-4313450,OASIS ADDICTION RECOVERY SOCIETY,20,PRESCOTT AVE,,"TORONTO, ON",M6N 3G5,(416) 751-0553,,17,CLOTHING DROP BOX LOCATION PERMIT
P90-4313452,OASIS ADDICTION RECOVERY SOCIETY,2750,JANE ST,,"TORONTO, ON",M3L 2N4,(416) 751-0553,,7,CLOTHING DROP BOX LOCATION PERMIT
P90-4313455,OASIS ADDICTION RECOVERY SOCIETY,116,JOSEPH DUGGAN RD,,"TORONTO, ON",M4L 3Y2,(416) 751-0553,,32,CLOTHING DROP BOX LOCATION PERMIT
P90-4313456,OASIS ADDICTION RECOVERY SOCIETY,373,CEDARVALE AVE,,"TORONTO, ON",M4C 4K7,(416) 751-0553,,31,CLOTHING DROP BOX LOCATION PERMIT
P90-4313457,OASIS ADDICTION RECOVERY SOCIETY,10,CHICHESTER PL,,"TORONTO, ON",M1T 1G5,(416) 751-0553,,40,CLOTHING DROP BOX LOCATION PERMIT
P90-4313458,OASIS ADDICTION RECOVERY SOCIETY,255,KENNEDY AVE,,"TORONTO, ON",M6P 3C4,(416) 751-0553,,13,CLOTHING DROP BOX LOCATION PERMIT
P90-4313460,OASIS ADDICTION RECOVERY SOCIETY,10,KINGSDALE AVE,,"TORONTO, ON",M2N 3W1,(416) 751-0553,,23,CLOTHING DROP BOX LOCATION PERMIT
P90-4313461,OASIS ADDICTION RECOVERY SOCIETY,433,COSBURN AVE,,"TORONTO, ON",M4J 2N2,(416) 751-0553,,29,CLOTHING DROP BOX LOCATION PERMIT
P90-4313463,OASIS ADDICTION RECOVERY SOCIETY,15,PRICE ST,,"TORONTO, ON",M4W 1Z1,(416) 751-0553,,27,CLOTHING DROP BOX LOCATION PERMIT
P90-4313464,OASIS ADDICTION RECOVERY SOCIETY,41,CRANFIELD RD,,"TORONTO, ON",M4B 3H6,(416) 751-0553,,31,CLOTHING DROP BOX LOCATION PERMIT
P90-4313466,OASIS ADDICTION RECOVERY SOCIETY,1081,PROGRESS AVE,,"TORONTO, ON",M1B 5Z6,(416) 751-0553,,42,CLOTHING DROP BOX LOCATION PERMIT
P90-4313467,OASIS ADDICTION RECOVERY SOCIETY,2266,QUEEN ST E,,"TORONTO, ON",M4E 1G4,(416) 751-0553,,32,CLOTHING DROP BOX LOCATION PERMIT
P90-4313469,OASIS ADDICTION RECOVERY SOCIETY,1,LAIRD DR,,"TORONTO, ON",M4G 3S8,(416) 751-0553,,26,CLOTHING DROP BOX LOCATION PERMIT
P90-4313471,OASIS ADDICTION RECOVERY SOCIETY,2266,QUEEN ST E,,"TORONTO, ON",M4E 1G4,(416) 751-0553,,32,CLOTHING DROP BOX LOCATION PERMIT
P90-4313472,OASIS ADDICTION RECOVERY SOCIETY,2256,LAKE SHORE BLVD W,,"TORONTO, ON",M8V 1A9,(416) 751-0553,,6,CLOTHING DROP BOX LOCATION PERMIT
P90-4313473,OASIS ADDICTION RECOVERY SOCIETY,590,RATHBURN RD,,"TORONTO, ON",M9C 3T3,(416) 751-0553,,3,CLOTHING DROP BOX LOCATION PERMIT
P90-4313477,OASIS ADDICTION RECOVERY SOCIETY,590,RATHBURN RD,,"TORONTO, ON",M9C 3T3,(416) 751-0553,,3,CLOTHING DROP BOX LOCATION PERMIT
P90-4313479,OASIS ADDICTION RECOVERY SOCIETY,3730,LAKE SHORE BLVD W,,"TORONTO, ON",M8W 1N6,(416) 751-0553,,6,CLOTHING DROP BOX LOCATION PERMIT
P90-4313482,OASIS ADDICTION RECOVERY SOCIETY,737,RHODES AVE,,"TORONTO, ON",M4J 4X5,(416) 751-0553,,30,CLOTHING DROP BOX LOCATION PERMIT
P90-4313483,OASIS ADDICTION RECOVERY SOCIETY,3730,LAKE SHORE BLVD W,,"TORONTO, ON",M8W 1N6,(416) 751-0553,,6,CLOTHING DROP BOX LOCATION PERMIT
P90-4313484,OASIS ADDICTION RECOVERY SOCIETY,155,CULFORD RD,,"TORONTO, ON",M6M 4K6,(416) 751-0553,,12,CLOTHING DROP BOX LOCATION PERMIT
P90-4313486,OASIS ADDICTION RECOVERY SOCIETY,6,CURITY AVE,,"TORONTO, ON",M4B 1X2,(416) 751-0553,,31,CLOTHING DROP BOX LOCATION PERMIT
P90-4313488,OASIS ADDICTION RECOVERY SOCIETY,23,LASCELLES BLVD,,"TORONTO, ON",M4V 2B9,(416) 751-0553,,22,CLOTHING DROP BOX LOCATION PERMIT
P90-4313489,OASIS ADDICTION RECOVERY SOCIETY,19,CURITY AVE,,"TORONTO, ON",M4B 1X4,(416) 751-0553,,31,CLOTHING DROP BOX LOCATION PERMIT
P90-4313493,OASIS ADDICTION RECOVERY SOCIETY,480,DANFORTH RD,,"TORONTO, ON",M1K 1C6,(416) 751-0553,,35,CLOTHING DROP BOX LOCATION PERMIT
P90-4313494,OASIS ADDICTION RECOVERY SOCIETY,2451,DANFORTH AVE,,"TORONTO, ON",M4C 1L1,(416) 751-0553,,32,CLOTHING DROP BOX LOCATION PERMIT
P90-4313495,OASIS ADDICTION RECOVERY SOCIETY,1630,DANFORTH AVE,,"TORONTO, ON",M4C 1H6,(416) 751-0553,,31,CLOTHING DROP BOX LOCATION PERMIT
P90-4313496,OASIS ADDICTION RECOVERY SOCIETY,468,DANFORTH AVE,,"TORONTO, ON",M4K 1P4,(416) 751-0553,,29,CLOTHING DROP BOX LOCATION PERMIT
P90-4313497,OASIS ADDICTION RECOVERY SOCIETY,12,DEERFORD RD,,"TORONTO, ON",M2J 3J3,(416) 751-0553,,33,CLOTHING DROP BOX LOCATION PERMIT
P90-4313499,OASIS ADDICTION RECOVERY SOCIETY,5559,DUNDAS ST W,,"TORONTO, ON",M9B 1B9,(416) 751-0553,,5,CLOTHING DROP BOX LOCATION PERMIT
P90-4313500,OASIS ADDICTION RECOVERY SOCIETY,265,DURIE ST,,"TORONTO, ON",M6S 3G2,(416) 751-0553,,13,CLOTHING DROP BOX LOCATION PERMIT
P90-4313501,OASIS ADDICTION RECOVERY SOCIETY,2467,EGLINTON AVE E,,"TORONTO, ON",M1K 2R1,(416) 751-0553,,35,CLOTHING DROP BOX LOCATION PERMIT
P90-4313504,OASIS ADDICTION RECOVERY SOCIETY,550,EGLINTON AVE W,,"TORONTO, ON",M5N 1B6,(416) 751-0553,,16,CLOTHING DROP BOX LOCATION PERMIT
P90-4313518,OASIS ADDICTION RECOVERY SOCIETY,38,LEACREST RD,,"TORONTO, ON",M4G 1E6,(416) 751-0553,,26,CLOTHING DROP BOX LOCATION PERMIT
P90-4313519,OASIS ADDICTION RECOVERY SOCIETY,85,LEE AVE,,"TORONTO, ON",M4E 2P1,(416) 751-0553,,32,CLOTHING DROP BOX LOCATION PERMIT
P90-4313520,OASIS ADDICTION RECOVERY SOCIETY,1109,LESLIE ST,,"TORONTO, ON",M3C 2J7,(416) 751-0553,,25,CLOTHING DROP BOX LOCATION PERMIT
P90-4313522,OASIS ADDICTION RECOVERY SOCIETY,1881,LESLIE ST,,"TORONTO, ON",M3B 2M3,(416) 751-0553,,25,CLOTHING DROP BOX LOCATION PERMIT
P90-4313524,OASIS ADDICTION RECOVERY SOCIETY,365,LIPPINCOTT ST,,"TORONTO, ON",M5S 2P6,(416) 751-0553,,20,CLOTHING DROP BOX LOCATION PERMIT
P90-4313537,OASIS ADDICTION RECOVERY SOCIETY,87,MAIN ST,,"TORONTO, ON",M4E 2V6,(416) 751-0553,,32,CLOTHING DROP BOX LOCATION PERMIT
P90-4313538,OASIS ADDICTION RECOVERY SOCIETY,165,MAIN ST,,"TORONTO, ON",M4E 2V9,(416) 751-0553,,32,CLOTHING DROP BOX LOCATION PERMIT
P90-4313541,OASIS ADDICTION RECOVERY SOCIETY,41,MARKBROOK LANE,,"TORONTO, ON",M9V 5E6,(416) 751-0553,,17,CLOTHING DROP BOX LOCATION PERMIT
P90-4313543,OASIS ADDICTION RECOVERY SOCIETY,61,MARKBROOK LANE,,"TORONTO, ON",M9V 5E7,(416) 751-0553,,1,CLOTHING DROP BOX LOCATION PERMIT
P90-4313567,OASIS ADDICTION RECOVERY SOCIETY,44,MONTGOMERY RD,,"TORONTO, ON",M8X 1Z4,(416) 751-0553,,4,CLOTHING DROP BOX LOCATION PERMIT
P90-4313569,OASIS ADDICTION RECOVERY SOCIETY,321,MOORE AVE,,"TORONTO, ON",M4G 3T6,(416) 751-0553,,26,CLOTHING DROP BOX LOCATION PERMIT
P90-4313571,OASIS ADDICTION RECOVERY SOCIETY,5,NEEDLE FIR WAY,,"TORONTO, ON",M3N 2B9,(416) 751-0553,,7,CLOTHING DROP BOX LOCATION PERMIT
P90-4313573,OASIS ADDICTION RECOVERY SOCIETY,7,NORTON AVE,,"TORONTO, ON",M6E 1E1,(416) 751-0553,,17,CLOTHING DROP BOX LOCATION PERMIT
P90-4313575,OASIS ADDICTION RECOVERY SOCIETY,277,ORTON PARK RD,,"TORONTO, ON",M1G 3T4,(416) 751-0553,,43,CLOTHING DROP BOX LOCATION PERMIT
P90-4313576,OASIS ADDICTION RECOVERY SOCIETY,94,QUEENS QUAY E,,"TORONTO, ON",M5E 1L7,(416) 751-0553,,28,CLOTHING DROP BOX LOCATION PERMIT
P90-4313577,OASIS ADDICTION RECOVERY SOCIETY,17,RIVERVIEW GDNS,,"TORONTO, ON",M6S 4E6,(416) 751-0553,,13,CLOTHING DROP BOX LOCATION PERMIT
P90-4313580,OASIS ADDICTION RECOVERY SOCIETY,1530,BIRCHMOUNT RD,,"TORONTO, ON",M1P 2G9,(416) 751-0553,,37,CLOTHING DROP BOX LOCATION PERMIT
P90-4313581,OASIS ADDICTION RECOVERY SOCIETY,2187,BLOOR ST W,,"TORONTO, ON",M6S 1N2,(416) 751-0553,,13,CLOTHING DROP BOX LOCATION PERMIT
P90-4313588,OASIS ADDICTION RECOVERY SOCIETY,105,ROWENA DR,,"TORONTO, ON",M3A 1R2,(416) 751-0553,,34,CLOTHING DROP BOX LOCATION PERMIT
P90-4313642,OASIS ADDICTION RECOVERY SOCIETY,575,ROYAL YORK RD,,"TORONTO, ON",M8Z 1X2,(416) 751-0553,,5,CLOTHING DROP BOX LOCATION PERMIT
P90-4313644,OASIS ADDICTION RECOVERY SOCIETY,11,RUDDINGTON DR,,"TORONTO, ON",M2K 2J6,(416) 751-0553,,24,CLOTHING DROP BOX LOCATION PERMIT
P90-4313648,OASIS ADDICTION RECOVERY SOCIETY,110,RUMSEY RD,,"TORONTO, ON",M4G 1P2,(416) 751-0553,,26,CLOTHING DROP BOX LOCATION PERMIT
P90-4313650,OASIS ADDICTION RECOVERY SOCIETY,2,SECORD AVE,,"TORONTO, ON",M4C 2C3,(416) 751-0553,,31,CLOTHING DROP BOX LOCATION PERMIT
P90-4313651,OASIS ADDICTION RECOVERY SOCIETY,5085,SHEPPARD AVE E,,"TORONTO, ON",M1S 4N8,(416) 751-0553,,42,CLOTHING DROP BOX LOCATION PERMIT
P90-4313652,OASIS ADDICTION RECOVERY SOCIETY,5085,SHEPPARD AVE E,,"TORONTO, ON",M1S 4N8,(416) 751-0553,,42,CLOTHING DROP BOX LOCATION PERMIT
P90-4313707,OASIS ADDICTION RECOVERY SOCIETY,2636,ST CLAIR AVE E,,"TORONTO, ON",M4B 3M1,(416) 751-0553,,31,CLOTHING DROP BOX LOCATION PERMIT
P90-4313734,OASIS ADDICTION RECOVERY SOCIETY,2723,ST CLAIR AVE E,,"TORONTO, ON",M4B 1M8,(416) 751-0553,,31,CLOTHING DROP BOX LOCATION PERMIT
P90-4313736,OASIS ADDICTION RECOVERY SOCIETY,1369,ST CLAIR AVE W,,"TORONTO, ON",M6E 1C5,(416) 751-0553,,17,CLOTHING DROP BOX LOCATION PERMIT
P90-4313742,OASIS ADDICTION RECOVERY SOCIETY,7,ST DENNIS DR,,"TORONTO, ON",M3C 1E4,(416) 751-0553,,26,CLOTHING DROP BOX LOCATION PERMIT
P90-4313754,OASIS ADDICTION RECOVERY SOCIETY,1239,THE QUEENSWAY,,"TORONTO, ON",M8Z 1S1,(416) 751-0553,,5,CLOTHING DROP BOX LOCATION PERMIT
P90-4313757,OASIS ADDICTION RECOVERY SOCIETY,1239,THE QUEENSWAY,,"TORONTO, ON",M8Z 1S1,(416) 751-0553,,5,CLOTHING DROP BOX LOCATION PERMIT
P90-4313758,OASIS ADDICTION RECOVERY SOCIETY,714,THE WEST MALL,,"TORONTO, ON",M9C 4X1,(416) 751-0553,,3,CLOTHING DROP BOX LOCATION PERMIT
P90-4313762,OASIS ADDICTION RECOVERY SOCIETY,716,THE WEST MALL,,"TORONTO, ON",M9C 4X6,(416) 751-0553,,3,CLOTHING DROP BOX LOCATION PERMIT
P90-4313763,OASIS ADDICTION RECOVERY SOCIETY,35,THORNCLIFFE PARK DR,,"TORONTO, ON",M4H 1J3,(416) 751-0553,,26,CLOTHING DROP BOX LOCATION PERMIT
P90-4313765,OASIS ADDICTION RECOVERY SOCIETY,75,THORNCLIFFE PARK DR,,"TORONTO, ON",M4H 1L4,(416) 751-0553,,26,CLOTHING DROP BOX LOCATION PERMIT
P90-4313774,OASIS ADDICTION RECOVERY SOCIETY,79,THORNCLIFFE PARK DR,,"TORONTO, ON",M4H 1L5,(416) 751-0553,,26,CLOTHING DROP BOX LOCATION PERMIT
P90-4313777,OASIS ADDICTION RECOVERY SOCIETY,58,THREE VALLEYS DR,,"TORONTO, ON",M3A 3B5,(416) 751-0553,,34,CLOTHING DROP BOX LOCATION PERMIT
P90-4313779,OASIS ADDICTION RECOVERY SOCIETY,20,TRENT AVE,,"TORONTO, ON",M4C 5R9,(416) 751-0553,,32,CLOTHING DROP BOX LOCATION PERMIT
P90-4313780,OASIS ADDICTION RECOVERY SOCIETY,83,UNDERHILL DR,,"TORONTO, ON",M3A 2J8,(416) 751-0553,,34,CLOTHING DROP BOX LOCATION PERMIT
P90-4313793,OASIS ADDICTION RECOVERY SOCIETY,65,VAN HORNE AVE,,"TORONTO, ON",M2J 2S8,(416) 751-0553,,33,CLOTHING DROP BOX LOCATION PERMIT
P90-4313794,OASIS ADDICTION RECOVERY SOCIETY,201,VAN HORNE AVE,,"TORONTO, ON",M2J 2T7,(416) 751-0553,,33,CLOTHING DROP BOX LOCATION PERMIT
P90-4313795,OASIS ADDICTION RECOVERY SOCIETY,1150,VICTORIA PARK AVE,,"TORONTO, ON",M4B 2K4,(416) 751-0553,,31,CLOTHING DROP BOX LOCATION PERMIT
P90-4313796,OASIS ADDICTION RECOVERY SOCIETY,1400,VICTORIA PARK AVE,,"TORONTO, ON",M4A 2L8,(416) 751-0553,,34,CLOTHING DROP BOX LOCATION PERMIT
P90-4313798,OASIS ADDICTION RECOVERY SOCIETY,1840,VICTORIA PARK AVE,,"TORONTO, ON",M1R 1S9,(416) 751-0553,,34,CLOTHING DROP BOX LOCATION PERMIT
P90-4313803,OASIS ADDICTION RECOVERY SOCIETY,1850,VICTORIA PARK AVE,,"TORONTO, ON",M1R 1T1,(416) 751-0553,,34,CLOTHING DROP BOX LOCATION PERMIT
P90-4313804,OASIS ADDICTION RECOVERY SOCIETY,2167,VICTORIA PARK AVE,,"TORONTO, ON",M1R 1V5,(416) 751-0553,,40,CLOTHING DROP BOX LOCATION PERMIT
P90-4313808,OASIS ADDICTION RECOVERY SOCIETY,1385,WARDEN AVE,,"TORONTO, ON",M1R 2S3,(416) 751-0553,,37,CLOTHING DROP BOX LOCATION PERMIT
P90-4313811,OASIS ADDICTION RECOVERY SOCIETY,3325,WARDEN AVE,,"TORONTO, ON",M1W 3L6,(416) 751-0553,,39,CLOTHING DROP BOX LOCATION PERMIT
P90-4313814,OASIS ADDICTION RECOVERY SOCIETY,2549,WESTON RD,,"TORONTO, ON",M9N 2A7,(416) 751-0553,,11,CLOTHING DROP BOX LOCATION PERMIT
P90-4313816,OASIS ADDICTION RECOVERY SOCIETY,9,WILLINGDON BLVD,,"TORONTO, ON",M8X 2H1,(416) 751-0553,,5,CLOTHING DROP BOX LOCATION PERMIT
P90-4313817,OASIS ADDICTION RECOVERY SOCIETY,116,WINNERS CIR,,"TORONTO, ON",M4L 3Z7,(416) 751-0553,,32,CLOTHING DROP BOX LOCATION PERMIT
P90-4313834,OASIS ADDICTION RECOVERY SOCIETY,33,WINONA DR,,"TORONTO, ON",M6G 3Z7,(416) 751-0553,,21,CLOTHING DROP BOX LOCATION PERMIT
P90-4313837,OASIS ADDICTION RECOVERY SOCIETY,80,WINTERS LANE,,"TORONTO, ON",M3J 1P3,(416) 751-0553,,8,CLOTHING DROP BOX LOCATION PERMIT
P90-4313838,OASIS ADDICTION RECOVERY SOCIETY,1240,WOODBINE AVE,,"TORONTO, ON",M4C 4E4,(416) 751-0553,,31,CLOTHING DROP BOX LOCATION PERMIT
P90-4313846,OASIS ADDICTION RECOVERY SOCIETY,4695,YONGE ST,,"TORONTO, ON",M2N 5M3,(416) 751-0553,,23,CLOTHING DROP BOX LOCATION PERMIT
P90-4313855,OASIS ADDICTION RECOVERY SOCIETY,5460,YONGE ST,,"TORONTO, ON",M2N 6K7,(416) 751-0553,,23,CLOTHING DROP BOX LOCATION PERMIT
P90-4419731,CANADIAN COMMUNITY SUPPORT FOUNDATION,8,GODSTONE RD,,"TORONTO, ON",M2J 3C4,,,33,CLOTHING DROP BOX LOCATION PERMIT
P90-4419736,CANADIAN COMMUNITY SUPPORT FOUNDATION,25,CEDARCROFT BLVD,,"TORONTO, ON",M2R 2Z3,,,10,CLOTHING DROP BOX LOCATION PERMIT
P90-4419739,CANADIAN COMMUNITY SUPPORT FOUNDATION,1865,MARTIN GROVE RD,,"TORONTO, ON",M9V 3S7,,,1,CLOTHING DROP BOX LOCATION PERMIT
P90-4419740,CANADIAN COMMUNITY SUPPORT FOUNDATION,2515,BATHURST ST,,"TORONTO, ON",M6B 2Z1,,,16,CLOTHING DROP BOX LOCATION PERMIT
P90-4419741,CANADIAN COMMUNITY SUPPORT FOUNDATION,95,REDPATH AVE,,"TORONTO, ON",M4S 2K1,,,22,CLOTHING DROP BOX LOCATION PERMIT
P90-4419742,CANADIAN COMMUNITY SUPPORT FOUNDATION,368,EGLINTON AVE E,,"TORONTO, ON",M4P 1L9,,,22,CLOTHING DROP BOX LOCATION PERMIT
P90-4419743,CANADIAN COMMUNITY SUPPORT FOUNDATION,66,BROADWAY AVE,,"TORONTO, ON",M4P 1T6,,,25,CLOTHING DROP BOX LOCATION PERMIT
P90-4419747,CANADIAN COMMUNITY SUPPORT FOUNDATION,33,HOLLY ST,,"TORONTO, ON",M4S 2G8,,,22,CLOTHING DROP BOX LOCATION PERMIT
P90-4419751,CANADIAN COMMUNITY SUPPORT FOUNDATION,440,EGLINTON AVE E,,"TORONTO, ON",M4P 1M2,,,22,CLOTHING DROP BOX LOCATION PERMIT
P90-4419753,CANADIAN COMMUNITY SUPPORT FOUNDATION,40,STEVENSON RD,,"TORONTO, ON",M9V 2B2,,,1,CLOTHING DROP BOX LOCATION PERMIT
P90-4419754,CANADIAN COMMUNITY SUPPORT FOUNDATION,95,HAVENBROOK BLVD,,"TORONTO, ON",M2J 1A9,,,33,CLOTHING DROP BOX LOCATION PERMIT
P90-4419757,CANADIAN COMMUNITY SUPPORT FOUNDATION,365,GRANDRAVINE DR,,"TORONTO, ON",M3N 1J7,,,9,CLOTHING DROP BOX LOCATION PERMIT
P90-4419758,CANADIAN COMMUNITY SUPPORT FOUNDATION,125,PARKWAY FOREST DR,,"TORONTO, ON",M2J 1L9,,,33,CLOTHING DROP BOX LOCATION PERMIT
P90-4419763,CANADIAN COMMUNITY SUPPORT FOUNDATION,2493,LAKE SHORE BLVD W,,"TORONTO, ON",M8V 1C7,,,6,CLOTHING DROP BOX LOCATION PERMIT
P90-4419767,CANADIAN COMMUNITY SUPPORT FOUNDATION,6161,BATHURST ST,,"TORONTO, ON",M2R 1Z5,,,10,CLOTHING DROP BOX LOCATION PERMIT
P90-4419768,CANADIAN COMMUNITY SUPPORT FOUNDATION,1915,MARTIN GROVE RD,,"TORONTO, ON",M9V 3T2,,,1,CLOTHING DROP BOX LOCATION PERMIT
P90-4419769,CANADIAN COMMUNITY SUPPORT FOUNDATION,2548,KIPLING AVE,,"TORONTO, ON",M9V 3B1,,,1,CLOTHING DROP BOX LOCATION PERMIT
P90-4419771,CANADIAN COMMUNITY SUPPORT FOUNDATION,6171,BATHURST ST,,"TORONTO, ON",M2R 1Z6,,,10,CLOTHING DROP BOX LOCATION PERMIT
P90-4419772,CANADIAN COMMUNITY SUPPORT FOUNDATION,2600,DON MILLS RD,,"TORONTO, ON",M2J 3B4,,,33,CLOTHING DROP BOX LOCATION PERMIT
P90-4419777,CANADIAN COMMUNITY SUPPORT FOUNDATION,80,FOREST MANOR RD,,"TORONTO, ON",M2J 1M6,,,33,CLOTHING DROP BOX LOCATION PERMIT
P90-4419778,CANADIAN COMMUNITY SUPPORT FOUNDATION,100,PARKWAY FOREST DR,,"TORONTO, ON",M2J 1L6,,,33,CLOTHING DROP BOX LOCATION PERMIT
P90-4419791,CANADIAN COMMUNITY SUPPORT FOUNDATION,31,ST DENNIS DR,,"TORONTO, ON",M3C 1G7,,,26,CLOTHING DROP BOX LOCATION PERMIT
P90-4419792,CANADIAN COMMUNITY SUPPORT FOUNDATION,740,DUFFERIN ST,,"TORONTO, ON",M6H 3K6,,,18,CLOTHING DROP BOX LOCATION PERMIT
P90-4419793,CANADIAN COMMUNITY SUPPORT FOUNDATION,1386,BAYVIEW AVE,,"TORONTO, ON",M4G 3A1,,,22,CLOTHING DROP BOX LOCATION PERMIT
P90-4419794,CANADIAN COMMUNITY SUPPORT FOUNDATION,2737,KIPLING AVE,,"TORONTO, ON",M9V 4C3,,,1,CLOTHING DROP BOX LOCATION PERMIT
P90-4422277,GTA FAITH ALLIANCE,1002,LAWRENCE AVE E,,"TORONTO, ON",M3C 1R4,(905) 837-7711,GTA FAITH ALLIANCE,25,CLOTHING DROP BOX LOCATION PERMIT
P90-4422899,B'NAI BRITH NATIONAL ORGANIZATION OF CANADA,225,WILSON AVE,,"TORONTO, ON",M5M 3B2,(416) 633-6224,,16,CLOTHING DROP BOX LOCATION PERMIT
P90-4422901,B'NAI BRITH NATIONAL ORGANIZATION OF CANADA,270,WILSON AVE,,"TORONTO, ON",M3H 1S6,(416) 633-6224,,10,CLOTHING DROP BOX LOCATION PERMIT
P90-4422905,B'NAI BRITH NATIONAL ORGANIZATION OF CANADA,8,PAILTON CRES,,"TORONTO, ON",M4S 2H8,(416) 633-6224,,22,CLOTHING DROP BOX LOCATION PERMIT
P90-4422906,B'NAI BRITH NATIONAL ORGANIZATION OF CANADA,121,PARKWAY FOREST DR,,"TORONTO, ON",M2J 5H4,(416) 633-6224,,33,CLOTHING DROP BOX LOCATION PERMIT
P90-4422907,B'NAI BRITH NATIONAL ORGANIZATION OF CANADA,640,ROSELAWN AVE,,"TORONTO, ON",M5N 1K9,(416) 633-6224,,16,CLOTHING DROP BOX LOCATION PERMIT
P90-4422909,B'NAI BRITH NATIONAL ORGANIZATION OF CANADA,270,WILSON AVE,,"TORONTO, ON",M3H 1S6,(416) 633-6224,,10,CLOTHING DROP BOX LOCATION PERMIT
P90-4422912,B'NAI BRITH NATIONAL ORGANIZATION OF CANADA,1639,BLOOR ST W,,"TORONTO, ON",M6P 1A6,(416) 633-6224,,14,CLOTHING DROP BOX LOCATION PERMIT
P90-4422913,B'NAI BRITH NATIONAL ORGANIZATION OF CANADA,23,CRAIGTON DR,,"TORONTO, ON",M1L 2N5,(416) 633-6224,,37,CLOTHING DROP BOX LOCATION PERMIT
P90-4422914,B'NAI BRITH NATIONAL ORGANIZATION OF CANADA,9,CRAIGTON DR,,"TORONTO, ON",M1L 2N5,(416) 633-6224,,37,CLOTHING DROP BOX LOCATION PERMIT
P90-4422915,B'NAI BRITH NATIONAL ORGANIZATION OF CANADA,59,ISABELLA ST,,"TORONTO, ON",M4Y 1M9,(416) 633-6224,,27,CLOTHING DROP BOX LOCATION PERMIT
P90-4422917,B'NAI BRITH NATIONAL ORGANIZATION OF CANADA,88,ERSKINE AVE,,"TORONTO, ON",M4P 1Y3,(416) 633-6224,,25,CLOTHING DROP BOX LOCATION PERMIT
P90-4425729,ONTARIO FEDERATION FOR THE CEREBRAL PALSIED,1,ANTRIM CRES,,"TORONTO, ON",M1P 4P2,(416) 244-9686,,40,CLOTHING DROP BOX LOCATION PERMIT
P90-4425730,ONTARIO FEDERATION FOR THE CEREBRAL PALSIED,1,BIGGIN CRT,,"TORONTO, ON",M4A 1L9,(416) 244-9686,,34,CLOTHING DROP BOX LOCATION PERMIT
P90-4425731,ONTARIO FEDERATION FOR THE CEREBRAL PALSIED,10,WILLOWRIDGE RD,,"TORONTO, ON",M9R 3Y8,(416) 244-9686,,4,CLOTHING DROP BOX LOCATION PERMIT
P90-4425732,ONTARIO FEDERATION FOR THE CEREBRAL PALSIED,100,SPRUCEWOOD CRT,,"TORONTO, ON",M1W 2P2,(416) 244-9686,,40,CLOTHING DROP BOX LOCATION PERMIT
P90-4425733,ONTARIO FEDERATION FOR THE CEREBRAL PALSIED,11,ANTRIM CRES,,"TORONTO, ON",M1P 4P3,(416) 244-9686,,40,CLOTHING DROP BOX LOCATION PERMIT
P90-4425734,ONTARIO FEDERATION FOR THE CEREBRAL PALSIED,111,COMBERMERE DR,,"TORONTO, ON",M3A 2W6,(416) 244-9686,,34,CLOTHING DROP BOX LOCATION PERMIT
P90-4425736,ONTARIO FEDERATION FOR THE CEREBRAL PALSIED,260,SENECA HILL DR,,"TORONTO, ON",M2J 4S6,(416) 244-9686,,33,CLOTHING DROP BOX LOCATION PERMIT
P90-4425737,ONTARIO FEDERATION FOR THE CEREBRAL PALSIED,350,SENECA HILL DR,,"TORONTO, ON",M2J 4S7,(416) 244-9686,,33,CLOTHING DROP BOX LOCATION PERMIT
P90-4425740,ONTARIO FEDERATION FOR THE CEREBRAL PALSIED,121,COMBERMERE DR,,"TORONTO, ON",M3A 2W7,(416) 244-9686,,34,CLOTHING DROP BOX LOCATION PERMIT
P90-4425742,ONTARIO FEDERATION FOR THE CEREBRAL PALSIED,1407,ROYAL YORK RD,,"TORONTO, ON",M9P 3A6,(416) 244-9686,,4,CLOTHING DROP BOX LOCATION PERMIT
P90-4425744,ONTARIO FEDERATION FOR THE CEREBRAL PALSIED,150,GRAYDON HALL DR,,"TORONTO, ON",M3A 3B2,(416) 244-9686,,34,CLOTHING DROP BOX LOCATION PERMIT
P90-4425746,ONTARIO FEDERATION FOR THE CEREBRAL PALSIED,20,ANTRIM CRES,,"TORONTO, ON",M1P 4N3,(416) 244-9686,,40,CLOTHING DROP BOX LOCATION PERMIT
P90-4425748,ONTARIO FEDERATION FOR THE CEREBRAL PALSIED,20,CHICHESTER PL,,"TORONTO, ON",M1T 1G6,(416) 244-9686,ONTARIO FEDERATION FOR CEREBRAL PALSY,40,CLOTHING DROP BOX LOCATION PERMIT
P90-4425750,ONTARIO FEDERATION FOR THE CEREBRAL PALSIED,21,RICHGROVE DR,,"TORONTO, ON",M9R 2L2,(416) 244-9686,,7,CLOTHING DROP BOX LOCATION PERMIT
P90-4425752,ONTARIO FEDERATION FOR THE CEREBRAL PALSIED,22,OAKMOUNT RD,,"TORONTO, ON",M6P 2M7,(416) 244-9686,,13,CLOTHING DROP BOX LOCATION PERMIT
P90-4425753,ONTARIO FEDERATION FOR THE CEREBRAL PALSIED,22,WILLOWRIDGE RD,,"TORONTO, ON",M9R 3Y9,(416) 244-9686,,4,CLOTHING DROP BOX LOCATION PERMIT
P90-4425754,ONTARIO FEDERATION FOR THE CEREBRAL PALSIED,2239,EGLINTON AVE E,,"TORONTO, ON",M1K 2N1,(416) 244-9686,,35,CLOTHING DROP BOX LOCATION PERMIT
P90-4425758,ONTARIO FEDERATION FOR THE CEREBRAL PALSIED,25,MARTHA EATON WAY,,"TORONTO, ON",M6M 5B7,(416) 244-9686,,12,CLOTHING DROP BOX LOCATION PERMIT
P90-4425759,ONTARIO FEDERATION FOR THE CEREBRAL PALSIED,250,BRENYON WAY,,"TORONTO, ON",M1B 3G3,(416) 244-9686,,42,CLOTHING DROP BOX LOCATION PERMIT
P90-4425761,ONTARIO FEDERATION FOR THE CEREBRAL PALSIED,2550,KINGSTON RD,,"TORONTO, ON",M1M 1L7,(416) 244-9686,,36,CLOTHING DROP BOX LOCATION PERMIT
P90-4425762,ONTARIO FEDERATION FOR THE CEREBRAL PALSIED,263,DIXON RD,,"TORONTO, ON",M9R 1R6,(416) 244-9686,,4,CLOTHING DROP BOX LOCATION PERMIT
P90-4425764,ONTARIO FEDERATION FOR THE CEREBRAL PALSIED,265,DIXON RD,,"TORONTO, ON",M9R 1R7,(416) 244-9686,,4,CLOTHING DROP BOX LOCATION PERMIT
P90-4425767,ONTARIO FEDERATION FOR THE CEREBRAL PALSIED,2667,KIPLING AVE,,"TORONTO, ON",M9V 4N9,(416) 244-9686,,1,CLOTHING DROP BOX LOCATION PERMIT
P90-4425769,ONTARIO FEDERATION FOR THE CEREBRAL PALSIED,2677,KIPLING AVE,,"TORONTO, ON",M9V 4P1,(416) 244-9686,,1,CLOTHING DROP BOX LOCATION PERMIT
P90-4425770,ONTARIO FEDERATION FOR THE CEREBRAL PALSIED,30,ANTRIM CRES,,"TORONTO, ON",M1P 4S4,(416) 244-9686,,40,CLOTHING DROP BOX LOCATION PERMIT
P90-4425776,ONTARIO FEDERATION FOR THE CEREBRAL PALSIED,3700,LAWRENCE AVE E,,"TORONTO, ON",M1G 3T2,(416) 244-9686,,38,CLOTHING DROP BOX LOCATION PERMIT
P90-4425777,ONTARIO FEDERATION FOR THE CEREBRAL PALSIED,39,RICHVIEW RD,,"TORONTO, ON",M9A 4M7,(416) 244-9686,,4,CLOTHING DROP BOX LOCATION PERMIT
P90-4425779,ONTARIO FEDERATION FOR THE CEREBRAL PALSIED,41,ANTRIM CRES,,"TORONTO, ON",M1P 4T1,(416) 244-9686,,40,CLOTHING DROP BOX LOCATION PERMIT
P90-4425780,ONTARIO FEDERATION FOR THE CEREBRAL PALSIED,41,MARKBROOK LANE,,"TORONTO, ON",M9V 5E6,(416) 244-9686,,17,CLOTHING DROP BOX LOCATION PERMIT
P90-4425782,ONTARIO FEDERATION FOR THE CEREBRAL PALSIED,51,TRAILRIDGE CRES,,"TORONTO, ON",M1E 4S9,(416) 244-9686,,43,CLOTHING DROP BOX LOCATION PERMIT
P90-4425784,ONTARIO FEDERATION FOR THE CEREBRAL PALSIED,37,LORD SEATON RD,,"TORONTO, ON",M2P 1K3,(416) 244-9686,,25,CLOTHING DROP BOX LOCATION PERMIT
P90-4425787,ONTARIO FEDERATION FOR THE CEREBRAL PALSIED,545,THE WEST MALL,,"TORONTO, ON",M9C 1G6,(416) 244-9686,,3,CLOTHING DROP BOX LOCATION PERMIT
P90-4425788,ONTARIO FEDERATION FOR THE CEREBRAL PALSIED,55,COSBURN AVE,,"TORONTO, ON",M4K 2E9,(416) 244-9686,,29,CLOTHING DROP BOX LOCATION PERMIT
P90-4425790,ONTARIO FEDERATION FOR THE CEREBRAL PALSIED,55,WYNFORD HEIGHTS CRES,,"TORONTO, ON",M3C 1L5,(416) 244-9686,,26,CLOTHING DROP BOX LOCATION PERMIT
P90-4425792,ONTARIO FEDERATION FOR THE CEREBRAL PALSIED,550,SCARBOROUGH GOLF CLUB RD,,"TORONTO, ON",M1G 1H6,(416) 244-9686,,43,CLOTHING DROP BOX LOCATION PERMIT
P90-4425793,ONTARIO FEDERATION FOR THE CEREBRAL PALSIED,550,SCARBOROUGH GOLF CLUB RD,,"TORONTO, ON",M1G 1H6,(416) 244-9686,,43,CLOTHING DROP BOX LOCATION PERMIT
P90-4425794,ONTARIO FEDERATION FOR THE CEREBRAL PALSIED,3744,ST CLAIR AVE E,,"TORONTO, ON",M1M 1T8,(416) 244-9686,,36,CLOTHING DROP BOX LOCATION PERMIT
P90-4425796,ONTARIO FEDERATION FOR THE CEREBRAL PALSIED,40,HIGH PARK AVE,,"TORONTO, ON",M6P 2S1,(416) 244-9686,,13,CLOTHING DROP BOX LOCATION PERMIT
P90-4425797,ONTARIO FEDERATION FOR THE CEREBRAL PALSIED,4049,DUNDAS ST W,,"TORONTO, ON",M6S 4Z5,(416) 244-9686,,13,CLOTHING DROP BOX LOCATION PERMIT
P90-4425798,ONTARIO FEDERATION FOR THE CEREBRAL PALSIED,420,MILL RD,,"TORONTO, ON",M9C 1Z1,(416) 244-9686,,3,CLOTHING DROP BOX LOCATION PERMIT
P90-4425799,ONTARIO FEDERATION FOR THE CEREBRAL PALSIED,50,PANORAMA CRT,,"TORONTO, ON",M9V 4A9,(416) 244-9686,,1,CLOTHING DROP BOX LOCATION PERMIT
P90-4425800,ONTARIO FEDERATION FOR THE CEREBRAL PALSIED,642,SHEPPARD AVE E,,"TORONTO, ON",M2K 1B9,(416) 244-9686,,24,CLOTHING DROP BOX LOCATION PERMIT
P90-4425801,ONTARIO FEDERATION FOR THE CEREBRAL PALSIED,620,MARTIN GROVE RD,,"TORONTO, ON",M9R 0A5,(416) 244-9686,,4,CLOTHING DROP BOX LOCATION PERMIT
P90-4425802,ONTARIO FEDERATION FOR THE CEREBRAL PALSIED,65,WYNFORD HEIGHTS CRES,,"TORONTO, ON",M3C 1L6,(416) 244-9686,,26,CLOTHING DROP BOX LOCATION PERMIT
P90-4425803,ONTARIO FEDERATION FOR THE CEREBRAL PALSIED,7,RICHGROVE DR,,"TORONTO, ON",M9R 2L1,(416) 244-9686,,7,CLOTHING DROP BOX LOCATION PERMIT
P90-4425804,ONTARIO FEDERATION FOR THE CEREBRAL PALSIED,77,FINCH AVE E,B,"TORONTO, ON",M2N 6H8,(416) 244-9686,,23,CLOTHING DROP BOX LOCATION PERMIT
P90-4425805,ONTARIO FEDERATION FOR THE CEREBRAL PALSIED,77,FINCH AVE E,B,"TORONTO, ON",M2N 6H8,(416) 244-9686,,23,CLOTHING DROP BOX LOCATION PERMIT
P90-4425807,ONTARIO FEDERATION FOR THE CEREBRAL PALSIED,875,KENNEDY RD,,"TORONTO, ON",M1K 2G1,(416) 244-9686,,35,CLOTHING DROP BOX LOCATION PERMIT
P90-4425809,ONTARIO FEDERATION FOR THE CEREBRAL PALSIED,1A,RICHVIEW RD,,"TORONTO, ON",M9A 4M5,(416) 244-9686,,4,CLOTHING DROP BOX LOCATION PERMIT
P90-4425810,ONTARIO FEDERATION FOR THE CEREBRAL PALSIED,1B,RICHVIEW RD,,"TORONTO, ON",M9A 4M6,(416) 244-9686,,4,CLOTHING DROP BOX LOCATION PERMIT
P90-4425811,ONTARIO FEDERATION FOR THE CEREBRAL PALSIED,10,ALTON TOWERS CIR,,"TORONTO, ON",M1V 5A1,(416) 244-9686,,41,CLOTHING DROP BOX LOCATION PERMIT
P90-4425812,ONTARIO FEDERATION FOR THE CEREBRAL PALSIED,100,ROWENA DR,,"TORONTO, ON",M3A 1R1,(416) 244-9686,,34,CLOTHING DROP BOX LOCATION PERMIT
P90-4425813,ONTARIO FEDERATION FOR THE CEREBRAL PALSIED,111,GORDON BAKER RD,,"TORONTO, ON",M2H 3R1,(416) 244-9686,,24,CLOTHING DROP BOX LOCATION PERMIT
P90-4425816,ONTARIO FEDERATION FOR THE CEREBRAL PALSIED,1217,YORK MILLS RD,,"TORONTO, ON",M3A 1Y4,(416) 244-9686,,34,CLOTHING DROP BOX LOCATION PERMIT
P90-4425818,ONTARIO FEDERATION FOR THE CEREBRAL PALSIED,150,ALTON TOWERS CIR,,"TORONTO, ON",M1V 4X7,(416) 244-9686,,41,CLOTHING DROP BOX LOCATION PERMIT
P90-4425819,ONTARIO FEDERATION FOR THE CEREBRAL PALSIED,160,ALTON TOWERS CIR,,"TORONTO, ON",M1V 4X8,(416) 244-9686,,41,CLOTHING DROP BOX LOCATION PERMIT
P90-4425820,ONTARIO FEDERATION FOR THE CEREBRAL PALSIED,1779,JANE ST,,"TORONTO, ON",M9N 3V7,(416) 244-9686,,12,CLOTHING DROP BOX LOCATION PERMIT
P90-4425821,ONTARIO FEDERATION FOR THE CEREBRAL PALSIED,2185,LAWRENCE AVE E,,"TORONTO, ON",M1P 2P6,(416) 244-9686,,37,CLOTHING DROP BOX LOCATION PERMIT
P90-4425822,ONTARIO FEDERATION FOR THE CEREBRAL PALSIED,22,BISHOP TUTU BLVD,,"TORONTO, ON",M5V 2Z7,(416) 244-9686,,19,CLOTHING DROP BOX LOCATION PERMIT
P90-4425824,ONTARIO FEDERATION FOR THE CEREBRAL PALSIED,2345,LAKE SHORE BLVD W,,"TORONTO, ON",M8V 1B7,(416) 244-9686,,6,CLOTHING DROP BOX LOCATION PERMIT
P90-4425828,ONTARIO FEDERATION FOR THE CEREBRAL PALSIED,3050,PHARMACY AVE,,"TORONTO, ON",M1W 2N7,(416) 244-9686,,39,CLOTHING DROP BOX LOCATION PERMIT
P90-4425830,ONTARIO FEDERATION FOR THE CEREBRAL PALSIED,644,SHEPPARD AVE E,,"TORONTO, ON",M2K 1C1,(416) 244-9686,,24,CLOTHING DROP BOX LOCATION PERMIT
P90-4425833,ONTARIO FEDERATION FOR THE CEREBRAL PALSIED,680,QUEENS QUAY W,,"TORONTO, ON",M5V 2Y9,(416) 244-9686,,20,CLOTHING DROP BOX LOCATION PERMIT
P90-4425835,ONTARIO FEDERATION FOR THE CEREBRAL PALSIED,77,QUEBEC AVE,,"TORONTO, ON",M6P 2T4,(416) 244-9686,,13,CLOTHING DROP BOX LOCATION PERMIT
P90-4425858,ONTARIO FEDERATION FOR THE CEREBRAL PALSIED,77,DAVISVILLE AVE,,"TORONTO, ON",M4S 1G4,(416) 244-9686,,22,CLOTHING DROP BOX LOCATION PERMIT
P90-4425859,ONTARIO FEDERATION FOR THE CEREBRAL PALSIED,1130,WILSON AVE,,"TORONTO, ON",M3M 1K3,(416) 244-9686,,9,CLOTHING DROP BOX LOCATION PERMIT
P90-4425861,ONTARIO FEDERATION FOR THE CEREBRAL PALSIED,125,NEPTUNE DR,,"TORONTO, ON",M6A 1X3,(416) 244-9686,,15,CLOTHING DROP BOX LOCATION PERMIT
P90-4425862,ONTARIO FEDERATION FOR THE CEREBRAL PALSIED,177,LINUS RD,,"TORONTO, ON",M2J 4S5,(416) 244-9686,,33,CLOTHING DROP BOX LOCATION PERMIT
P90-4427520,CANADIAN COMMUNITY SUPPORT FOUNDATION,1675,EGLINTON AVE W,,"TORONTO, ON",M4R 1A8,,,15,CLOTHING DROP BOX LOCATION PERMIT
P90-4427521,CANADIAN COMMUNITY SUPPORT FOUNDATION,793,WILSON AVE,,"TORONTO, ON",M3K 1E4,,,9,CLOTHING DROP BOX LOCATION PERMIT
P90-4427729,CANADIAN COMMUNITY SUPPORT FOUNDATION,5215,YONGE ST,,"TORONTO, ON",M2N 5P7,,,23,CLOTHING DROP BOX LOCATION PERMIT
P90-4427833,CANADIAN COMMUNITY SUPPORT FOUNDATION,50,GRAYDON HALL DR,,"TORONTO, ON",M3A 3A4,,,34,CLOTHING DROP BOX LOCATION PERMIT
P90-4427838,CANADIAN COMMUNITY SUPPORT FOUNDATION,65,REXDALE BLVD,,"TORONTO, ON",M9W 1P1,,,2,CLOTHING DROP BOX LOCATION PERMIT
P90-4427839,CANADIAN COMMUNITY SUPPORT FOUNDATION,6600,FINCH AVE W,,"TORONTO, ON",M9V 3Z6,,,1,CLOTHING DROP BOX LOCATION PERMIT
P90-4427840,CANADIAN COMMUNITY SUPPORT FOUNDATION,100,DUNDALK DR,,"TORONTO, ON",M1P 4V2,,,40,CLOTHING DROP BOX LOCATION PERMIT
P90-4427842,CANADIAN COMMUNITY SUPPORT FOUNDATION,80,ALTON TOWERS CIR,,"TORONTO, ON",M1V 5E8,,,41,CLOTHING DROP BOX LOCATION PERMIT
P90-4427857,CANADIAN COMMUNITY SUPPORT FOUNDATION,1465,LAWRENCE AVE W,,"TORONTO, ON",M6L 1B2,,,12,CLOTHING DROP BOX LOCATION PERMIT
P90-4427861,CANADIAN COMMUNITY SUPPORT FOUNDATION,1393,WILSON AVE,,"TORONTO, ON",M3M 1H6,,,9,CLOTHING DROP BOX LOCATION PERMIT
P90-4427863,CANADIAN COMMUNITY SUPPORT FOUNDATION,2980,DON MILLS RD,,"TORONTO, ON",M2J 3B9,,,33,CLOTHING DROP BOX LOCATION PERMIT
P90-4427864,CANADIAN COMMUNITY SUPPORT FOUNDATION,20,ESTERBROOKE AVE,,"TORONTO, ON",M2J 2C3,,,33,CLOTHING DROP BOX LOCATION PERMIT
P90-4427875,CANADIAN COMMUNITY SUPPORT FOUNDATION,3205,YONGE ST,,"TORONTO, ON",M4N 2L3,,,25,CLOTHING DROP BOX LOCATION PERMIT
P90-4427941,CANADIAN COMMUNITY SUPPORT FOUNDATION,1455,WILSON AVE,,"TORONTO, ON",M3M 1H4,,,9,CLOTHING DROP BOX LOCATION PERMIT
P90-4427944,CANADIAN COMMUNITY SUPPORT FOUNDATION,1277,WILSON AVE,,"TORONTO, ON",M3M 1K1,,,9,CLOTHING DROP BOX LOCATION PERMIT
P90-4427945,CANADIAN COMMUNITY SUPPORT FOUNDATION,2900,JANE ST,,"TORONTO, ON",M3N 2J7,,,7,CLOTHING DROP BOX LOCATION PERMIT
P90-4427946,CANADIAN COMMUNITY SUPPORT FOUNDATION,1795,JANE ST,,"TORONTO, ON",M9N 2S7,,,12,CLOTHING DROP BOX LOCATION PERMIT
P90-4427976,CANADIAN COMMUNITY SUPPORT FOUNDATION,921,WILSON AVE,,"TORONTO, ON",M3K 1E9,,,9,CLOTHING DROP BOX LOCATION PERMIT
P90-4427977,CANADIAN COMMUNITY SUPPORT FOUNDATION,450,WINONA DR,,"TORONTO, ON",M6C 3T9,,,17,CLOTHING DROP BOX LOCATION PERMIT
P90-4427980,CANADIAN COMMUNITY SUPPORT FOUNDATION,88,ALTON TOWERS CIR,,"TORONTO, ON",M1V 5C5,,,41,CLOTHING DROP BOX LOCATION PERMIT
P90-4428332,B'NAI BRITH NATIONAL ORGANIZATION OF CANADA,638,SHEPPARD AVE W,,"TORONTO, ON",M3H 2S1,(416) 633-6224,,10,CLOTHING DROP BOX LOCATION PERMIT
P90-4428333,B'NAI BRITH NATIONAL ORGANIZATION OF CANADA,638,SHEPPARD AVE W,,"TORONTO, ON",M3H 2S1,(416) 633-6224,,10,CLOTHING DROP BOX LOCATION PERMIT
P90-4428807,OASIS ADDICTION RECOVERY SOCIETY,1081,PROGRESS AVE,,"TORONTO, ON",M1B 5Z6,(416) 751-0553,,42,CLOTHING DROP BOX LOCATION PERMIT
P90-4428825,GREEN EARTH USED CLOTHING RECYCLING INC,743,BIRCHMOUNT RD,,"TORONTO, ON",M1K 1R5,(416) 894-1666,,35,CLOTHING DROP BOX LOCATION PERMIT
P90-4428847,GREEN EARTH USED CLOTHING RECYCLING INC,609,THE EAST MALL,,"TORONTO, ON",M9B 4A9,(416) 894-1666,,3,CLOTHING DROP BOX LOCATION PERMIT
P90-4428855,GREEN EARTH USED CLOTHING RECYCLING INC,1300,CASTLEFIELD AVE,,"TORONTO, ON",M6B 4B3,(416) 894-1666,,15,CLOTHING DROP BOX LOCATION PERMIT
P90-4428856,GREEN EARTH USED CLOTHING RECYCLING INC,435,BROWNS LINE,,"TORONTO, ON",M8W 3V1,(416) 894-1666,,6,CLOTHING DROP BOX LOCATION PERMIT
P90-4428857,GREEN EARTH USED CLOTHING RECYCLING INC,4050,BLOOR ST W,,"TORONTO, ON",M9B 1M5,(416) 894-1666,,5,CLOTHING DROP BOX LOCATION PERMIT
P90-4428985,GREEN EARTH USED CLOTHING RECYCLING INC,2333,KEELE ST,,"TORONTO, ON",M6M 4A1,(416) 894-1666,,12,CLOTHING DROP BOX LOCATION PERMIT
P90-4428993,GREEN EARTH USED CLOTHING RECYCLING INC,2601,EGLINTON AVE E,,"TORONTO, ON",M1K 2S1,(416) 894-1666,,37,CLOTHING DROP BOX LOCATION PERMIT
P90-4429002,GREEN EARTH USED CLOTHING RECYCLING INC,3160,EGLINTON AVE E,,"TORONTO, ON",M1J 2H4,(416) 894-1666,,38,CLOTHING DROP BOX LOCATION PERMIT
P90-4429013,GREEN EARTH USED CLOTHING RECYCLING INC,521,MARLEE AVE,,"TORONTO, ON",M6B 3J3,(416) 894-1666,,15,CLOTHING DROP BOX LOCATION PERMIT
P90-4429020,GREEN EARTH USED CLOTHING RECYCLING INC,707,KENNEDY RD,,"TORONTO, ON",M1K 2C1,(416) 894-1666,,35,CLOTHING DROP BOX LOCATION PERMIT
P90-4429026,GREEN EARTH USED CLOTHING RECYCLING INC,3497,DUNDAS ST W,,"TORONTO, ON",M6S 2S6,(416) 894-1666,,13,CLOTHING DROP BOX LOCATION PERMIT
P90-4429067,GREEN EARTH USED CLOTHING RECYCLING INC,356,EASTERN AVE,,"TORONTO, ON",M4M 1B8,(416) 894-1666,,30,CLOTHING DROP BOX LOCATION PERMIT
P90-4429069,GREEN EARTH USED CLOTHING RECYCLING INC,1110,FLINT RD,,"TORONTO, ON",M3J 2J5,(416) 894-1666,,8,CLOTHING DROP BOX LOCATION PERMIT
P90-4429070,GREEN EARTH USED CLOTHING RECYCLING INC,150,CLONMORE DR,,"TORONTO, ON",M1N 1Y1,(416) 894-1666,,36,CLOTHING DROP BOX LOCATION PERMIT
P90-4429072,GREEN EARTH USED CLOTHING RECYCLING INC,404,OLD WESTON RD,,"TORONTO, ON",M6N 3B1,(416) 894-1666,,17,CLOTHING DROP BOX LOCATION PERMIT
P90-4430372,AMJ RECYCLING INC,3700,MIDLAND AVE,,"TORONTO, ON",M1V 4V3,(647) 295-6973,AMJ RECYCLING INC,41,CLOTHING DROP BOX LOCATION PERMIT
P90-4430377,AMJ RECYCLING INC,6065,STEELES AVE E,,"TORONTO, ON",M1X 0A8,(647) 295-6973,AMJ RECYCLING INC,42,CLOTHING DROP BOX LOCATION PERMIT
P90-4430378,AMJ RECYCLING INC,3331,MARKHAM RD,,"TORONTO, ON",M1X 1S8,(647) 295-6973,AMJ RECYCLING INC,42,CLOTHING DROP BOX LOCATION PERMIT
P90-4430918,AMJ RECYCLING INC,3493,KINGSTON RD,,"TORONTO, ON",M1M 1R4,(647) 295-6973,,36,CLOTHING DROP BOX LOCATION PERMIT
P90-4431324,CANADIAN COMMUNITY SUPPORT FOUNDATION,2375,STEELES AVE W,,"TORONTO, ON",M3J 3A8,,,8,CLOTHING DROP BOX LOCATION PERMIT
P90-4532519,AMJ RECYCLING INC,4675,STEELES AVE E,,"TORONTO, ON",M1V 4S5,(647) 295-6973,AMJ RECYCLING,41,CLOTHING DROP BOX LOCATION PERMIT
P90-4532523,AMJ RECYCLING INC,5739-5745,FINCH AVE E,,"TORONTO, ON",M1B 2G5,(647) 295-6973,,42,CLOTHING DROP BOX LOCATION PERMIT
P90-4532525,AMJ RECYCLING INC,3967,LAWRENCE AVE E,,"TORONTO, ON",M1G 1S2,(647) 295-6973,,43,CLOTHING DROP BOX LOCATION PERMIT
P90-4532527,AMJ RECYCLING INC,90,HALSEY AVE,,"TORONTO, ON",M4B 1A9,(647) 295-6973,,31,CLOTHING DROP BOX LOCATION PERMIT
P90-4532528,AMJ RECYCLING INC,896,EGLINTON AVE E,,"TORONTO, ON",M4G 2L2,(647) 295-6973,,26,CLOTHING DROP BOX LOCATION PERMIT
P90-4532531,AMJ RECYCLING INC,20,TUXEDO CRT,,"TORONTO, ON",M1G 3S5,(647) 295-6973,,38,CLOTHING DROP BOX LOCATION PERMIT
P90-4532533,AMJ RECYCLING INC,96,DEARHAM WOOD,,"TORONTO, ON",M1E 1S4,(647) 295-6973,,43,CLOTHING DROP BOX LOCATION PERMIT
P90-4532535,AMJ RECYCLING INC,200,MARKHAM RD,,"TORONTO, ON",M1J 3C2,(647) 295-6973,,38,CLOTHING DROP BOX LOCATION PERMIT
P90-4532540,AMJ RECYCLING INC,3090,LAKE SHORE BLVD W,,"TORONTO, ON",M8V 1L2,(647) 295-6973,AMJ RECYCLING,6,CLOTHING DROP BOX LOCATION PERMIT
P90-4532541,AMJ RECYCLING INC,1677,O'CONNOR DR,,"TORONTO, ON",M4A 1W5,(647) 295-6973,AMJ RECYCLING,34,CLOTHING DROP BOX LOCATION PERMIT
P90-4532544,AMJ RECYCLING INC,40,TUXEDO CRT,,"TORONTO, ON",M1G 3S7,(647) 295-6973,AMJ RECYCLING,38,CLOTHING DROP BOX LOCATION PERMIT
P90-4532545,AMJ RECYCLING INC,420,HORNER AVE,,"TORONTO, ON",M8W 2A4,(647) 295-6973,AMJ RECYCLING,6,CLOTHING DROP BOX LOCATION PERMIT
P90-4532546,AMJ RECYCLING INC,2272,LAKE SHORE BLVD W,,"TORONTO, ON",M8V 1A9,(647) 295-6973,,6,CLOTHING DROP BOX LOCATION PERMIT
P90-4532549,AMJ RECYCLING INC,2308,LAKE SHORE BLVD W,,"TORONTO, ON",M8V 1B5,(647) 295-6973,,6,CLOTHING DROP BOX LOCATION PERMIT
P90-4532562,AMJ RECYCLING INC,1951,EGLINTON AVE W,,"TORONTO, ON",M6E 2J7,(647) 295-6973,,17,CLOTHING DROP BOX LOCATION PERMIT
P90-4532563,AMJ RECYCLING INC,4015,SHEPPARD AVE E,,"TORONTO, ON",M1S 1S7,(647) 295-6973,,40,CLOTHING DROP BOX LOCATION PERMIT
P90-4532565,AMJ RECYCLING INC,285,MORNINGSIDE AVE,,"TORONTO, ON",M1E 3G1,(647) 295-6973,,44,CLOTHING DROP BOX LOCATION PERMIT
P90-4532566,AMJ RECYCLING INC,111,STRACHAN AVE,,"TORONTO, ON",M6J 2S7,(647) 295-6973,,19,CLOTHING DROP BOX LOCATION PERMIT
P90-4532569,AMJ RECYCLING INC,3551,SHEPPARD AVE E,,"TORONTO, ON",M1T 3K8,(647) 295-6973,,40,CLOTHING DROP BOX LOCATION PERMIT
P90-4532570,AMJ RECYCLING INC,3524,BATHURST ST,,"TORONTO, ON",M6A 2C6,(647) 295-6973,,15,CLOTHING DROP BOX LOCATION PERMIT
P90-4533961,AMJ RECYCLING INC,151,MORNINGSIDE AVE,,"TORONTO, ON",M1E 3C8,(647) 295-6973,,44,CLOTHING DROP BOX LOCATION PERMIT
P90-4533962,AMJ RECYCLING INC,1021,MARKHAM RD,,"TORONTO, ON",M1H 2Y5,(647) 295-6973,,38,CLOTHING DROP BOX LOCATION PERMIT
P90-4533963,AMJ RECYCLING INC,6023,YONGE ST,,"TORONTO, ON",M2M 3W2,(647) 295-6973,,24,CLOTHING DROP BOX LOCATION PERMIT
P90-4534787,JACS TORONTO,68,SHEPPARD AVE W,,"TORONTO, ON",M2N 1M4,(416) 638-0350,,23,CLOTHING DROP BOX LOCATION PERMIT
P90-4534789,JACS TORONTO,25,GLENFOREST RD,,"TORONTO, ON",M4N 2A1,(416) 638-0350,,25,CLOTHING DROP BOX LOCATION PERMIT
P90-4534792,JACS TORONTO,912,EGLINTON AVE W,,"TORONTO, ON",M6C 2C2,(416) 638-0350,,21,CLOTHING DROP BOX LOCATION PERMIT
P90-4534793,JACS TORONTO,995,EGLINTON AVE W,,"TORONTO, ON",M6C 2C7,(416) 638-0350,,21,CLOTHING DROP BOX LOCATION PERMIT
P90-4534795,JACS TORONTO,125,BURNABY BLVD,,"TORONTO, ON",M5N 1G3,(416) 638-0350,,16,CLOTHING DROP BOX LOCATION PERMIT
P90-4534797,JACS TORONTO,400,KEELE ST,,"TORONTO, ON",M6P 2L1,(416) 638-0350,,13,CLOTHING DROP BOX LOCATION PERMIT
P90-4534799,JACS TORONTO,1880,AVENUE RD,,"TORONTO, ON",M5M 3Z8,(416) 638-0350,,16,CLOTHING DROP BOX LOCATION PERMIT
P90-4534814,JACS TORONTO,789,ST CLAIR AVE W,,"TORONTO, ON",M6C 1B7,(416) 638-0350,,21,CLOTHING DROP BOX LOCATION PERMIT
P90-4534816,JACS TORONTO,351,KEELE ST,,"TORONTO, ON",M6P 2K6,(416) 638-0350,,14,CLOTHING DROP BOX LOCATION PERMIT
P90-4534925,AMJ RECYCLING INC,2050,KEELE ST,,"TORONTO, ON",M6M 3Y7,(647) 295-6973,,12,CLOTHING DROP BOX LOCATION PERMIT
P90-4543107,AMJ RECYCLING INC,2850,KINGSTON RD,,"TORONTO, ON",M1M 1M7,(647) 295-6973,AMJ RECYCLING INC,36,CLOTHING DROP BOX LOCATION PERMIT
P90-4543108,AMJ RECYCLING INC,400,SEWELLS RD,,"TORONTO, ON",M1B 5K8,(647) 295-6973,AMJ RECYCLING INC,42,CLOTHING DROP BOX LOCATION PERMIT
P90-4543109,AMJ RECYCLING INC,2372,EGLINTON AVE E,,"TORONTO, ON",M1K 2P3,(647) 295-6973,AMJ RECYCLING INC,37,CLOTHING DROP BOX LOCATION PERMIT
P90-4543110,AMJ RECYCLING INC,1493,EGLINTON AVE W,,"TORONTO, ON",M6E 2G6,(647) 295-6973,AMJ RECYCLING INC,15,CLOTHING DROP BOX LOCATION PERMIT
P90-4543111,AMJ RECYCLING INC,1539,JANE ST,,"TORONTO, ON",M9N 2R3,(647) 295-6973,AMJ RECYCLING INC,12,CLOTHING DROP BOX LOCATION PERMIT
P90-4543113,AMJ RECYCLING INC,1500,WILSON AVE,,"TORONTO, ON",M3M 1K4,(647) 295-6973,AMJ RECYCLING INC,9,CLOTHING DROP BOX LOCATION PERMIT
P90-4543115,AMJ RECYCLING INC,4911-4919,STEELES AVE E,,"TORONTO, ON",M1V 4Z4,(647) 295-6973,AMJ RECYCLING INC,41,CLOTHING DROP BOX LOCATION PERMIT
P90-4544237,CANADIAN COMMUNITY SUPPORT FOUNDATION,2360,BIRCHMOUNT RD,,"TORONTO, ON",M1T 2M4,,,40,CLOTHING DROP BOX LOCATION PERMIT
P90-4544397,AMJ RECYCLING INC,1736,EGLINTON AVE W,,"TORONTO, ON",M6E 2H6,(647) 295-6973,AMJ RECYCLING INC,15,CLOTHING DROP BOX LOCATION PERMIT
P90-4544399,AMJ RECYCLING INC,1820,KEELE ST,,"TORONTO, ON",M6M 3X1,(647) 295-6973,AMJ RECYCLING INC,12,CLOTHING DROP BOX LOCATION PERMIT
P90-4544400,AMJ RECYCLING INC,3143,EGLINTON AVE E,,"TORONTO, ON",M1J 2G2,(647) 295-6973,AMJ RECYCLING INC,36,CLOTHING DROP BOX LOCATION PERMIT
P90-4544401,AMJ RECYCLING INC,4455,SHEPPARD AVE E,,"TORONTO, ON",M1S 3G9,(647) 295-6973,AMJ RECYCLING INC,41,CLOTHING DROP BOX LOCATION PERMIT
P90-4544439,B & T TEXTILE INC,548,ROGERS RD,,"TORONTO, ON",M6M 1B5,(647) 221-8531,B & T TEXTILE,12,CLOTHING DROP BOX LOCATION PERMIT
P90-4544595,AMJ RECYCLING INC,723-733,KENNEDY RD,,"TORONTO, ON",M1K 2C6,(647) 295-6973,AMJ RECYCLING INC,35,CLOTHING DROP BOX LOCATION PERMIT
P90-4544596,AMJ RECYCLING INC,373,MARLEE AVE,,"TORONTO, ON",M6B 3H9,(647) 295-6973,AMJ RECYCLING INC,15,CLOTHING DROP BOX LOCATION PERMIT
P90-4646224,AMJ RECYCLING INC,880,ELLESMERE RD,,"TORONTO, ON",M1P 2W6,(647) 295-6973,AMJ RECYCLING INC,40,CLOTHING DROP BOX LOCATION PERMIT
P90-4646226,AMJ RECYCLING INC,2231,VICTORIA PARK AVE,,"TORONTO, ON",M1R 1V8,(647) 295-6973,AMJ RECYCLING INC,40,CLOTHING DROP BOX LOCATION PERMIT
P90-4646269,AMJ RECYCLING INC,3275,SHEPPARD AVE E,,"TORONTO, ON",M1T 3P1,(647) 295-6973,AMJ RECYCLING INC,40,CLOTHING DROP BOX LOCATION PERMIT
P90-4646308,CANADIAN COMMUNITY SUPPORT FOUNDATION,25,PARKWAY FOREST DR,,"TORONTO, ON",M2J 1L4,,,33,CLOTHING DROP BOX LOCATION PERMIT
P90-4646311,CANADIAN COMMUNITY SUPPORT FOUNDATION,120,PERTH AVE,,"TORONTO, ON",M6P 4E1,,,18,CLOTHING DROP BOX LOCATION PERMIT
P90-4646312,CANADIAN COMMUNITY SUPPORT FOUNDATION,1,DE BOERS DR,,"TORONTO, ON",M3J 0G6,,,8,CLOTHING DROP BOX LOCATION PERMIT
P90-4646313,CANADIAN COMMUNITY SUPPORT FOUNDATION,940,CALEDONIA RD,,"TORONTO, ON",M6B 3Y4,,,15,CLOTHING DROP BOX LOCATION PERMIT
P90-4646314,CANADIAN COMMUNITY SUPPORT FOUNDATION,1577,LAWRENCE AVE W,,"TORONTO, ON",M6L 1C4,,,12,CLOTHING DROP BOX LOCATION PERMIT
P90-4646315,CANADIAN COMMUNITY SUPPORT FOUNDATION,100,LOTHERTON PTWAY,,"TORONTO, ON",M6B 2G8,,,15,CLOTHING DROP BOX LOCATION PERMIT
P90-4646317,CANADIAN COMMUNITY SUPPORT FOUNDATION,5,BELLEVUE CRES,,"TORONTO, ON",M9N 1G5,,,11,CLOTHING DROP BOX LOCATION PERMIT
P90-4646318,CANADIAN COMMUNITY SUPPORT FOUNDATION,30,GODSTONE RD,,"TORONTO, ON",M2J 3C6,,,33,CLOTHING DROP BOX LOCATION PERMIT
P90-4646319,CANADIAN COMMUNITY SUPPORT FOUNDATION,24,LEITH HILL RD,,"TORONTO, ON",M2J 1Z3,,,33,CLOTHING DROP BOX LOCATION PERMIT
P90-4646320,CANADIAN COMMUNITY SUPPORT FOUNDATION,35,SHOREHAM DR,,"TORONTO, ON",M3N 1S5,,,8,CLOTHING DROP BOX LOCATION PERMIT
P90-4646321,CANADIAN COMMUNITY SUPPORT FOUNDATION,2999,JANE ST,,"TORONTO, ON",M3N 2J9,,,8,CLOTHING DROP BOX LOCATION PERMIT
P90-4646322,CANADIAN COMMUNITY SUPPORT FOUNDATION,1125,SHEPPARD AVE E,,"TORONTO, ON",M2K 1C5,,,24,CLOTHING DROP BOX LOCATION PERMIT
P90-4646323,CANADIAN COMMUNITY SUPPORT FOUNDATION,2940,JANE ST,,"TORONTO, ON",M3N 2V4,,,7,CLOTHING DROP BOX LOCATION PERMIT
P90-4646327,CANADIAN COMMUNITY SUPPORT FOUNDATION,2350,BIRCHMOUNT RD,,"TORONTO, ON",M1T 3N4,,,40,CLOTHING DROP BOX LOCATION PERMIT
P90-4646328,CANADIAN COMMUNITY SUPPORT FOUNDATION,4400,JANE ST,,"TORONTO, ON",M3N 2K4,,,8,CLOTHING DROP BOX LOCATION PERMIT
P90-4646329,CANADIAN COMMUNITY SUPPORT FOUNDATION,335,DRIFTWOOD AVE,,"TORONTO, ON",M3N 2P3,,,8,CLOTHING DROP BOX LOCATION PERMIT
P90-4646345,AMJ RECYCLING INC,80,ELLESMERE RD,,"TORONTO, ON",M1R 4C2,(647) 295-6973,AMJ RECYCLING INC,40,CLOTHING DROP BOX LOCATION PERMIT
P90-4646351,CANADIAN COMMUNITY SUPPORT FOUNDATION,345,DRIFTWOOD AVE,,"TORONTO, ON",M3N 2P4,,,8,CLOTHING DROP BOX LOCATION PERMIT
P90-4646353,CANADIAN COMMUNITY SUPPORT FOUNDATION,750,WILSON HEIGHTS BLVD,,"TORONTO, ON",M3H 6B1,,,10,CLOTHING DROP BOX LOCATION PERMIT
P90-4646354,CANADIAN COMMUNITY SUPPORT FOUNDATION,787,JANE ST,,"TORONTO, ON",M6N 4B6,,,11,CLOTHING DROP BOX LOCATION PERMIT
P90-4646355,CANADIAN COMMUNITY SUPPORT FOUNDATION,777,JANE ST,,"TORONTO, ON",M6N 4B6,,,11,CLOTHING DROP BOX LOCATION PERMIT
P90-4646357,CANADIAN COMMUNITY SUPPORT FOUNDATION,15,TOBERMORY DR,,"TORONTO, ON",M3N 2R5,,,8,CLOTHING DROP BOX LOCATION PERMIT
P90-4646361,CANADIAN COMMUNITY SUPPORT FOUNDATION,9,ESTERBROOKE AVE,,"TORONTO, ON",M2J 2C5,,,33,CLOTHING DROP BOX LOCATION PERMIT
P90-4646362,CANADIAN COMMUNITY SUPPORT FOUNDATION,17-25,LASCELLES BLVD,,"TORONTO, ON",M4V 2B6,,,22,CLOTHING DROP BOX LOCATION PERMIT
P90-4646363,CANADIAN COMMUNITY SUPPORT FOUNDATION,17,SHOREHAM CRT,,"TORONTO, ON",M3N 1T4,,,8,CLOTHING DROP BOX LOCATION PERMIT
P90-4646690,ONTARIO FEDERATION FOR THE CEREBRAL PALSIED,23,GAGE AVE,,"TORONTO, ON",M1J 1T3,(416) 244-9686,,38,CLOTHING DROP BOX LOCATION PERMIT
P90-4647068,AMJ RECYCLING INC,1913,ELLESMERE RD,,"TORONTO, ON",M1H 2W5,(647) 295-6973,AMJ RECYCLING INC,38,CLOTHING DROP BOX LOCATION PERMIT
P90-4647071,AMJ RECYCLING INC,1193-1199,BIRCHMOUNT RD,,"TORONTO, ON",M1P 2C1,(647) 295-6973,AMJ RECYCLING INC,37,CLOTHING DROP BOX LOCATION PERMIT
P90-4647072,AMJ RECYCLING INC,2950,JANE ST,,"TORONTO, ON",M3N 3A4,(647) 295-6973,AMJ RECYCLING INC,7,CLOTHING DROP BOX LOCATION PERMIT
P90-4647073,AMJ RECYCLING INC,3930,LAWRENCE AVE E,,"TORONTO, ON",M1G 1R7,(647) 295-6973,AMJ RECYCLING INC,43,CLOTHING DROP BOX LOCATION PERMIT
P90-4647074,AMJ RECYCLING INC,1071,MIDLAND AVE,,"TORONTO, ON",M1K 4G7,(647) 295-6973,AMJ RECYCLING INC,37,CLOTHING DROP BOX LOCATION PERMIT
P90-4647075,AMJ RECYCLING INC,761,JANE ST,,"TORONTO, ON",M6N 4B4,(647) 295-6973,AMJ RECYCLING INC,11,CLOTHING DROP BOX LOCATION PERMIT
P90-4647607,ONTARIO FEDERATION FOR THE CEREBRAL PALSIED,40,AURORA CRT,,"TORONTO, ON",M1W 2M5,(416) 244-9686,,40,CLOTHING DROP BOX LOCATION PERMIT
P90-4647608,ONTARIO FEDERATION FOR THE CEREBRAL PALSIED,50,AURORA CRT,,"TORONTO, ON",M1W 2M6,(416) 244-9686,,40,CLOTHING DROP BOX LOCATION PERMIT
P90-4647615,ONTARIO FEDERATION FOR THE CEREBRAL PALSIED,20,CHICHESTER PL,,"TORONTO, ON",M1T 1G6,(416) 244-9686,,40,CLOTHING DROP BOX LOCATION PERMIT
P90-4647711,CANADIAN DIABETES ASSOCIATION,20,CARABOB CRT,,"TORONTO, ON",M1T 3N1,(416) 363-3373,,40,CLOTHING DROP BOX LOCATION PERMIT
P90-4647714,CANADIAN DIABETES ASSOCIATION,20,CARABOB CRT,,"TORONTO, ON",M1T 3N1,(416) 363-3373,,40,CLOTHING DROP BOX LOCATION PERMIT
P90-4648191,B'NAI BRITH NATIONAL ORGANIZATION OF CANADA,59,LISSOM CRES,,"TORONTO, ON",M2R 2P2,(416) 633-6224,,10,CLOTHING DROP BOX LOCATION PERMIT
P90-4648898,AMJ RECYCLING INC,118,DAWES RD,,"TORONTO, ON",M4C 5B6,(647) 295-6973,AMJ RECYCLING INC,31,CLOTHING DROP BOX LOCATION PERMIT
P90-4648901,AMJ RECYCLING INC,2584,BIRCHMOUNT RD,,"TORONTO, ON",M1T 2M5,(647) 295-6973,AMJ RECYCLING INC,40,CLOTHING DROP BOX LOCATION PERMIT
P90-4648994,ONTARIO FEDERATION FOR THE CEREBRAL PALSIED,640,SHEPPARD AVE E,,"TORONTO, ON",M2K 1B8,(416) 244-9686,,24,CLOTHING DROP BOX LOCATION PERMIT
P90-4648997,ONTARIO FEDERATION FOR THE CEREBRAL PALSIED,25,BISHOP TUTU BLVD,,"TORONTO, ON",M5V 2Z9,(416) 244-9686,,19,CLOTHING DROP BOX LOCATION PERMIT
P90-4649001,ONTARIO FEDERATION FOR THE CEREBRAL PALSIED,1,BIGGIN CRT,,"TORONTO, ON",M4A 1L9,(416) 244-9686,,34,CLOTHING DROP BOX LOCATION PERMIT
P90-4649003,ONTARIO FEDERATION FOR THE CEREBRAL PALSIED,2,TRIBURNHAM PL,,"TORONTO, ON",M9C 3P4,(416) 244-9686,,3,CLOTHING DROP BOX LOCATION PERMIT
P90-4649015,ONTARIO FEDERATION FOR THE CEREBRAL PALSIED,51,TRAILRIDGE CRES,,"TORONTO, ON",M1E 4S9,(416) 244-9686,,43,CLOTHING DROP BOX LOCATION PERMIT
P90-4649016,ONTARIO FEDERATION FOR THE CEREBRAL PALSIED,1217,YORK MILLS RD,,"TORONTO, ON",M3A 1Y4,(416) 244-9686,,34,CLOTHING DROP BOX LOCATION PERMIT
P90-4649190,CANADIAN DIABETES ASSOCIATION,602-604,BROWNS LINE,,"TORONTO, ON",M8W 3V5,(416) 363-3373,,6,CLOTHING DROP BOX LOCATION PERMIT
P90-4649192,CANADIAN DIABETES ASSOCIATION,60,GUILDWOOD PKY,,"TORONTO, ON",M1E 1N9,(416) 363-3373,,43,CLOTHING DROP BOX LOCATION PERMIT
P90-4649193,CANADIAN DIABETES ASSOCIATION,159,DYNAMIC DR,,"TORONTO, ON",M1V 5L8,(416) 363-3373,,41,CLOTHING DROP BOX LOCATION PERMIT
P90-4649194,CANADIAN DIABETES ASSOCIATION,3750,LAWRENCE AVE E,,"TORONTO, ON",M1G 1R1,(416) 363-3373,,43,CLOTHING DROP BOX LOCATION PERMIT
P90-4649195,CANADIAN DIABETES ASSOCIATION,2681,DANFORTH AVE,,"TORONTO, ON",M4C 1L4,(416) 363-3373,,32,CLOTHING DROP BOX LOCATION PERMIT
P90-4649196,CANADIAN DIABETES ASSOCIATION,3464,LAKE SHORE BLVD W,,"TORONTO, ON",M8W 1N4,(416) 363-3373,,6,CLOTHING DROP BOX LOCATION PERMIT
P90-4649197,CANADIAN DIABETES ASSOCIATION,2,GOWER ST,,"TORONTO, ON",M4B 1E2,(416) 363-3373,,31,CLOTHING DROP BOX LOCATION PERMIT
P90-4649198,CANADIAN DIABETES ASSOCIATION,150,EIGHTH ST,,"TORONTO, ON",M8V 3C6,(416) 363-3373,,6,CLOTHING DROP BOX LOCATION PERMIT
P90-4649199,CANADIAN DIABETES ASSOCIATION,136,ORTON PARK RD,1,"TORONTO, ON",M1G 3H1,(416) 363-3373,,43,CLOTHING DROP BOX LOCATION PERMIT
P90-4649200,CANADIAN DIABETES ASSOCIATION,249,DONLANDS AVE,,"TORONTO, ON",M4J 3R5,(416) 363-3373,,29,CLOTHING DROP BOX LOCATION PERMIT
P90-4649201,CANADIAN DIABETES ASSOCIATION,6,SPRING GARDEN AVE,,"TORONTO, ON",M2N 3G2,(416) 363-3373,,23,CLOTHING DROP BOX LOCATION PERMIT
P90-4649206,CANADIAN DIABETES ASSOCIATION,54,PETERBOROUGH AVE,,"TORONTO, ON",M6H 2L1,(416) 363-3373,,17,CLOTHING DROP BOX LOCATION PERMIT
P90-4649207,CANADIAN DIABETES ASSOCIATION,1,EASTDALE AVE,,"TORONTO, ON",M4C 4Z8,(416) 363-3373,,31,CLOTHING DROP BOX LOCATION PERMIT
P90-4649208,CANADIAN DIABETES ASSOCIATION,1871,O'CONNOR DR,,"TORONTO, ON",M4A 1X1,(416) 363-3373,,34,CLOTHING DROP BOX LOCATION PERMIT
P90-4649209,CANADIAN DIABETES ASSOCIATION,1093,WOODBINE AVE,,"TORONTO, ON",M4C 4C6,(416) 363-3373,,31,CLOTHING DROP BOX LOCATION PERMIT
P90-4649210,CANADIAN DIABETES ASSOCIATION,759,EASTERN AVE,,"TORONTO, ON",M4M 1E9,(416) 363-3373,,30,CLOTHING DROP BOX LOCATION PERMIT
P90-4649211,CANADIAN DIABETES ASSOCIATION,101,VAN HORNE AVE,,"TORONTO, ON",M2J 2S8,(416) 363-3373,,33,CLOTHING DROP BOX LOCATION PERMIT
P90-4649212,CANADIAN DIABETES ASSOCIATION,111,DANESBURY AVE,,"TORONTO, ON",M6B 3L3,(416) 363-3373,,15,CLOTHING DROP BOX LOCATION PERMIT
P90-4649213,CANADIAN DIABETES ASSOCIATION,260,SILVER SPRINGS BLVD,,"TORONTO, ON",M1V 1S4,(416) 363-3373,,39,CLOTHING DROP BOX LOCATION PERMIT
P90-4649214,CANADIAN DIABETES ASSOCIATION,2533,KIPLING AVE,,"TORONTO, ON",M9V 3A8,(416) 363-3373,,1,CLOTHING DROP BOX LOCATION PERMIT
P90-4649215,CANADIAN DIABETES ASSOCIATION,75,ALEXMUIR BLVD,,"TORONTO, ON",M1V 1H6,(416) 363-3373,,41,CLOTHING DROP BOX LOCATION PERMIT
P90-4649375,AMJ RECYCLING INC,2525-2567,WARDEN AVE,,"TORONTO, ON",M1W 2H5,(647) 295-6973,AMJ RECYCLING INC,40,CLOTHING DROP BOX LOCATION PERMIT
P90-4649377,AMJ RECYCLING INC,2775,BIRCHMOUNT RD,,"TORONTO, ON",M1W 2C7,(647) 295-6973,AMJ RECYCLING INC,39,CLOTHING DROP BOX LOCATION PERMIT
P90-4649477,AMJ RECYCLING INC,3879,LAWRENCE AVE E,,"TORONTO, ON",M1G 1R2,(647) 295-6973,AMJ RECYCLING INC,43,CLOTHING DROP BOX LOCATION PERMIT
P90-4649478,AMJ RECYCLING INC,1711,MCCOWAN RD,,"TORONTO, ON",M1S 2Y3,(647) 295-6973,AMJ RECYCLING INC,42,CLOTHING DROP BOX LOCATION PERMIT
P90-4649479,AMJ RECYCLING INC,549,MARKHAM RD,,"TORONTO, ON",M1H 2A3,(647) 295-6973,AMJ RECYCLING INC,43,CLOTHING DROP BOX LOCATION PERMIT
P90-4649480,AMJ RECYCLING INC,3464,KINGSTON RD,,"TORONTO, ON",M1M 1R5,(647) 295-6973,AMJ RECYCLING INC,36,CLOTHING DROP BOX LOCATION PERMIT
P90-4649907,ONTARIO FEDERATION FOR THE CEREBRAL PALSIED,152,CACTUS AVE,,"TORONTO, ON",M2R 2V3,(416) 244-9686,,23,CLOTHING DROP BOX LOCATION PERMIT
P90-4651099,AMJ RECYCLING INC,1703,VICTORIA PARK AVE,,"TORONTO, ON",M1R 1R9,(647) 295-6973,AMJ RECYCLING INC,37,CLOTHING DROP BOX LOCATION PERMIT
P90-4651102,AMJ RECYCLING INC,823,MANNING AVE,,"TORONTO, ON",M6G 2W9,(647) 295-6973,AMJ RECYCLING INC,20,CLOTHING DROP BOX LOCATION PERMIT
P90-4651679,AMJ RECYCLING INC,821,BRIMLEY RD,,"TORONTO, ON",M1J 1C9,(647) 295-6973,AMJ RECYCLING INC,38,CLOTHING DROP BOX LOCATION PERMIT
P90-4652677,OASIS ADDICTION RECOVERY SOCIETY,259,ELLESMERE RD,,"TORONTO, ON",M1R 4E4,(416) 751-0553,,37,CLOTHING DROP BOX LOCATION PERMIT
P90-4652678,OASIS ADDICTION RECOVERY SOCIETY,77,GOUGH AVE,,"TORONTO, ON",M4K 3N9,(416) 751-0553,,29,CLOTHING DROP BOX LOCATION PERMIT
P90-4652679,OASIS ADDICTION RECOVERY SOCIETY,271A,SCARLETT RD,,"TORONTO, ON",M6N 4L1,(416) 751-0553,,11,CLOTHING DROP BOX LOCATION PERMIT
P90-4652681,OASIS ADDICTION RECOVERY SOCIETY,197,BLANTYRE AVE,,"TORONTO, ON",M1N 2R6,(416) 751-0553,,36,CLOTHING DROP BOX LOCATION PERMIT
P90-4652683,OASIS ADDICTION RECOVERY SOCIETY,1940,LAWRENCE AVE E,,"TORONTO, ON",M1R 2Y7,(416) 751-0553,,37,CLOTHING DROP BOX LOCATION PERMIT
P90-4652684,OASIS ADDICTION RECOVERY SOCIETY,50,TRUDELLE ST,,"TORONTO, ON",M1J 1Z3,(416) 751-0553,,38,CLOTHING DROP BOX LOCATION PERMIT
P90-4652686,OASIS ADDICTION RECOVERY SOCIETY,25,LEONARD AVE,,"TORONTO, ON",M5T 2R2,(416) 751-0553,,20,CLOTHING DROP BOX LOCATION PERMIT
P90-4652855,OASIS ADDICTION RECOVERY SOCIETY,200,EGLINTON AVE W,,"TORONTO, ON",M4R 1A7,(416) 751-0553,,16,CLOTHING DROP BOX LOCATION PERMIT
P90-4652856,OASIS ADDICTION RECOVERY SOCIETY,89,CHURCH AVE,,"TORONTO, ON",M2N 6C9,(416) 751-0553,,23,CLOTHING DROP BOX LOCATION PERMIT
P90-4653459,AMJ RECYCLING INC,8130,SHEPPARD AVE E,,"TORONTO, ON",M1B 3W3,(647) 295-6973,AMJ RECYCLING INC,42,CLOTHING DROP BOX LOCATION PERMIT
P90-4653947,JACS TORONTO,6171,BATHURST ST,,"TORONTO, ON",M2R 1Z6,(416) 638-0350,,10,CLOTHING DROP BOX LOCATION PERMIT
P90-4653949,JACS TORONTO,6161,BATHURST ST,,"TORONTO, ON",M2R 1Z5,(416) 638-0350,,10,CLOTHING DROP BOX LOCATION PERMIT
P90-4653950,JACS TORONTO,25,DUNCANWOODS DR,,"TORONTO, ON",M9L 2C5,(416) 638-0350,,7,CLOTHING DROP BOX LOCATION PERMIT
P90-4653951,JACS TORONTO,1,CANYON AVE,,"TORONTO, ON",M3H 4X8,(416) 638-0350,,10,CLOTHING DROP BOX LOCATION PERMIT
P90-4653952,JACS TORONTO,30,GILDER DR,,"TORONTO, ON",M1K 4P6,(416) 638-0350,,37,CLOTHING DROP BOX LOCATION PERMIT
P90-4654529,CANADIAN DIABETES ASSOCIATION,174,DUNCANWOODS DR,,"TORONTO, ON",M9L 2E3,(416) 363-3373,,7,CLOTHING DROP BOX LOCATION PERMIT
P90-4654532,CANADIAN DIABETES ASSOCIATION,60,PLAYFAIR AVE,,"TORONTO, ON",M6B 2P9,(416) 363-3373,,15,CLOTHING DROP BOX LOCATION PERMIT
P90-4654534,CANADIAN DIABETES ASSOCIATION,636,GLENHOLME AVE,,"TORONTO, ON",M6E 3G9,(416) 363-3373,,15,CLOTHING DROP BOX LOCATION PERMIT
P90-4654536,CANADIAN DIABETES ASSOCIATION,2350,MCCOWAN RD,,"TORONTO, ON",M1S 4B4,(416) 363-3373,,41,CLOTHING DROP BOX LOCATION PERMIT
P90-4654538,CANADIAN DIABETES ASSOCIATION,80,BENNETT RD,,"TORONTO, ON",M1E 3Y3,(416) 363-3373,,44,CLOTHING DROP BOX LOCATION PERMIT
P90-4654542,CANADIAN DIABETES ASSOCIATION,25,ROCHELLE CRES,,"TORONTO, ON",M2J 1Y3,(416) 363-3373,,33,CLOTHING DROP BOX LOCATION PERMIT
P90-4654545,CANADIAN DIABETES ASSOCIATION,4640,FINCH AVE E,,"TORONTO, ON",M1S 4G2,(416) 363-3373,,41,CLOTHING DROP BOX LOCATION PERMIT
P90-4656499,AMJ RECYCLING INC,4184-4192,SHEPPARD AVE E,,"TORONTO, ON",M1S 1T3,(647) 295-6973,AMJ RECYCLING INC,41,CLOTHING DROP BOX LOCATION PERMIT
P90-4656507,CANADIAN DIABETES ASSOCIATION,460,RENFORTH DR,,"TORONTO, ON",M9C 2N2,(416) 363-3373,,3,CLOTHING DROP BOX LOCATION PERMIT
P90-4656811,CANADIAN DIABETES ASSOCIATION,385-387,DAWES RD,,"TORONTO, ON",M4B 2E6,(416) 363-3373,,31,CLOTHING DROP BOX LOCATION PERMIT
P90-4656814,CANADIAN DIABETES ASSOCIATION,3850,LAKE SHORE BLVD W,,"TORONTO, ON",M8W 1R3,(416) 363-3373,,6,CLOTHING DROP BOX LOCATION PERMIT
P90-4656815,CANADIAN DIABETES ASSOCIATION,4637,KINGSTON RD,,"TORONTO, ON",M1E 2P8,(416) 363-3373,,44,CLOTHING DROP BOX LOCATION PERMIT
P90-4656817,CANADIAN DIABETES ASSOCIATION,1000,GERRARD ST E,,"TORONTO, ON",M4M 3G6,(416) 363-3373,,30,CLOTHING DROP BOX LOCATION PERMIT
P90-4656825,CANADIAN DIABETES ASSOCIATION,520,CARLAW AVE,,"TORONTO, ON",M4K 3J4,(416) 363-3373,,30,CLOTHING DROP BOX LOCATION PERMIT
P90-4656826,CANADIAN DIABETES ASSOCIATION,98,LAMB AVE,,"TORONTO, ON",M4J 4M6,(416) 363-3373,,30,CLOTHING DROP BOX LOCATION PERMIT
P90-4656828,CANADIAN DIABETES ASSOCIATION,76,KINGSTON RD,,"TORONTO, ON",M4L 1S6,(416) 363-3373,,32,CLOTHING DROP BOX LOCATION PERMIT
P90-4656830,CANADIAN DIABETES ASSOCIATION,1174,WOODBINE AVE,,"TORONTO, ON",M4C 4E2,(416) 363-3373,,31,CLOTHING DROP BOX LOCATION PERMIT
P90-4656831,CANADIAN DIABETES ASSOCIATION,1750,KEELE ST,,"TORONTO, ON",M6M 3W8,(416) 363-3373,,12,CLOTHING DROP BOX LOCATION PERMIT
P90-4656832,CANADIAN DIABETES ASSOCIATION,150,KENWOOD AVE,,"TORONTO, ON",M6C 2S3,(416) 363-3373,,21,CLOTHING DROP BOX LOCATION PERMIT
P90-4656833,CANADIAN DIABETES ASSOCIATION,4,TREEWOOD ST,,"TORONTO, ON",M1P 3J4,(416) 363-3373,,37,CLOTHING DROP BOX LOCATION PERMIT
P90-4656834,CANADIAN DIABETES ASSOCIATION,596,MARLEE AVE,,"TORONTO, ON",M6B 3J5,(416) 363-3373,,15,CLOTHING DROP BOX LOCATION PERMIT
P90-4659954,THE CLUTTERED CLOSET INC,82,BUTTONWOOD AVE,,"TORONTO, ON",M6M 2J5,(905) 761-0006,THE CLUTTERED CLOSET,11,CLOTHING DROP BOX LOCATION PERMIT
P90-4659994,GREEN EARTH USED CLOTHING RECYCLING INC,160,THE WESTWAY,,"TORONTO, ON",M9P 2C1,(416) 894-1666,,4,CLOTHING DROP BOX LOCATION PERMIT
P90-4676735,CANADIAN DIABETES ASSOCIATION,1,WARRENDALE CRT,,"TORONTO, ON",M9V 1P9,(416) 363-3373,,1,CLOTHING DROP BOX LOCATION PERMIT
P90-4676737,CANADIAN DIABETES ASSOCIATION,70,HUMBERLINE DR,,"TORONTO, ON",M9W 7H3,(416) 363-3373,,1,CLOTHING DROP BOX LOCATION PERMIT
P90-4676745,CANADIAN DIABETES ASSOCIATION,61,CLAIREVILLE DR,,"TORONTO, ON",M9W 5Z7,(416) 363-3373,,1,CLOTHING DROP BOX LOCATION PERMIT
P90-4676746,CANADIAN DIABETES ASSOCIATION,930,QUEEN'S PLATE DR,,"TORONTO, ON",M9W 6Z5,(416) 363-3373,,2,CLOTHING DROP BOX LOCATION PERMIT
P90-4676790,CANADIAN DIABETES ASSOCIATION,910,QUEEN'S PLATE DR,,"TORONTO, ON",M9W 6Z4,(416) 363-3373,,2,CLOTHING DROP BOX LOCATION PERMIT
P90-4676791,CANADIAN DIABETES ASSOCIATION,20,FONTENAY CRT,,"TORONTO, ON",M9A 4W4,(416) 363-3373,,4,CLOTHING DROP BOX LOCATION PERMIT
P90-4676792,CANADIAN DIABETES ASSOCIATION,2549,WESTON RD,,"TORONTO, ON",M9N 2A7,(416) 363-3373,,11,CLOTHING DROP BOX LOCATION PERMIT
P90-4676793,CANADIAN DIABETES ASSOCIATION,1225,SHAW ST,,"TORONTO, ON",M6G 3N9,(416) 363-3373,,21,CLOTHING DROP BOX LOCATION PERMIT
P90-4676794,CANADIAN DIABETES ASSOCIATION,45,DUNFIELD AVE,,"TORONTO, ON",M4S 2H4,(416) 363-3373,,22,CLOTHING DROP BOX LOCATION PERMIT
P90-4676795,CANADIAN DIABETES ASSOCIATION,18,KENASTON GDNS,,"TORONTO, ON",M2K 1G8,(416) 363-3373,,24,CLOTHING DROP BOX LOCATION PERMIT
P90-4676798,CANADIAN DIABETES ASSOCIATION,946,LAWRENCE AVE E,,"TORONTO, ON",M3C 1R1,(416) 363-3373,,25,CLOTHING DROP BOX LOCATION PERMIT
P90-4676799,CANADIAN DIABETES ASSOCIATION,980,LAWRENCE AVE E,,"TORONTO, ON",M3C 1R2,(416) 363-3373,,25,CLOTHING DROP BOX LOCATION PERMIT
P90-4676801,CANADIAN DIABETES ASSOCIATION,825,DON MILLS RD,,"TORONTO, ON",M3C 1V4,(416) 363-3373,,26,CLOTHING DROP BOX LOCATION PERMIT
P90-4676802,CANADIAN DIABETES ASSOCIATION,75,WYNFORD HEIGHTS CRES,,"TORONTO, ON",M3C 3H9,(416) 363-3373,,26,CLOTHING DROP BOX LOCATION PERMIT
P90-4676803,CANADIAN DIABETES ASSOCIATION,360,LESMILL RD,,"TORONTO, ON",M3B 2T5,(416) 363-3373,,34,CLOTHING DROP BOX LOCATION PERMIT
P90-4676805,CANADIAN DIABETES ASSOCIATION,20,GRAYDON HALL DR,,"TORONTO, ON",M3A 2Z9,(416) 363-3373,,34,CLOTHING DROP BOX LOCATION PERMIT
P90-4676807,CANADIAN DIABETES ASSOCIATION,135,FENELON DR,,"TORONTO, ON",M3A 3K7,(416) 363-3373,,34,CLOTHING DROP BOX LOCATION PERMIT
P90-4676809,CANADIAN DIABETES ASSOCIATION,60,NORTH HILLS TERR,,"TORONTO, ON",M3C 1M7,(416) 363-3373,,34,CLOTHING DROP BOX LOCATION PERMIT
P90-4676812,CANADIAN DIABETES ASSOCIATION,131,THE HEIGHTS DR,,"TORONTO, ON",M3C 1Y3,(416) 363-3373,,34,CLOTHING DROP BOX LOCATION PERMIT
P90-4676813,CANADIAN DIABETES ASSOCIATION,712,KENNEDY RD,,"TORONTO, ON",M1K 2B5,(416) 363-3373,,35,CLOTHING DROP BOX LOCATION PERMIT
P90-4676815,CANADIAN DIABETES ASSOCIATION,130,MIDLAND AVE,,"TORONTO, ON",M1N 4E6,(416) 363-3373,,36,CLOTHING DROP BOX LOCATION PERMIT
P90-4676816,CANADIAN DIABETES ASSOCIATION,102,CRAIGLEE DR,,"TORONTO, ON",M1N 2M7,(416) 363-3373,,36,CLOTHING DROP BOX LOCATION PERMIT
P90-4676818,CANADIAN DIABETES ASSOCIATION,3650,DANFORTH AVE,,"TORONTO, ON",M1N 2E8,(416) 363-3373,,36,CLOTHING DROP BOX LOCATION PERMIT
P90-4676819,CANADIAN DIABETES ASSOCIATION,1755,BRIMLEY RD,,"TORONTO, ON",M1P 0A3,(416) 363-3373,,38,CLOTHING DROP BOX LOCATION PERMIT
P90-4676823,CANADIAN DIABETES ASSOCIATION,255,BAMBURGH CIR,,"TORONTO, ON",M1W 3T6,(416) 363-3373,,39,CLOTHING DROP BOX LOCATION PERMIT
P90-4676826,CANADIAN DIABETES ASSOCIATION,4091,SHEPPARD AVE E,,"TORONTO, ON",M1S 3H2,(416) 363-3373,,41,CLOTHING DROP BOX LOCATION PERMIT
P90-4676827,CANADIAN DIABETES ASSOCIATION,3895,LAWRENCE AVE E,,"TORONTO, ON",M1G 3T3,(416) 363-3373,,43,CLOTHING DROP BOX LOCATION PERMIT
P90-4678072,CANADIAN DIABETES ASSOCIATION,270,PALMDALE DR,,"TORONTO, ON",M1T 3N8,(416) 363-3373,,40,CLOTHING DROP BOX LOCATION PERMIT
P90-4678074,CANADIAN DIABETES ASSOCIATION,1755,BRIMLEY RD,,"TORONTO, ON",M1P 0A3,(416) 363-3373,,38,CLOTHING DROP BOX LOCATION PERMIT
P90-4678077,CANADIAN DIABETES ASSOCIATION,825,DON MILLS RD,,"TORONTO, ON",M3C 1V4,(416) 363-3373,,26,CLOTHING DROP BOX LOCATION PERMIT
P90-4684466,B & T TEXTILE INC,3671,DUNDAS ST W,,"TORONTO, ON",M6S 2T3,(647) 221-8531,B & T TEXTILE,13,CLOTHING DROP BOX LOCATION PERMIT
P90-4684467,B & T TEXTILE INC,17,LESLIE ST,,"TORONTO, ON",M4M 3H9,(647) 221-8531,B & T TEXTILE,32,CLOTHING DROP BOX LOCATION PERMIT
P90-4684468,B & T TEXTILE INC,2957,DUFFERIN ST,,"TORONTO, ON",M6B 3T1,(647) 221-8531,B & T TEXTILE,15,CLOTHING DROP BOX LOCATION PERMIT
P90-4684469,B & T TEXTILE INC,1664,DUPONT ST,,"TORONTO, ON",M6P 3T2,(647) 221-8531,,18,CLOTHING DROP BOX LOCATION PERMIT
P90-4684499,JACS TORONTO,3292,BAYVIEW AVE,,"TORONTO, ON",M2M 4J5,(416) 638-0350,,24,CLOTHING DROP BOX LOCATION PERMIT
P90-4686531,OASIS ADDICTION RECOVERY SOCIETY,9,EMERSON AVE,,"TORONTO, ON",M6H 3S7,(416) 751-0553,,18,CLOTHING DROP BOX LOCATION PERMIT
P90-4688307,JACS TORONTO,1,RICHVIEW RD,,"TORONTO, ON",M9A 4M6,(416) 638-0350,,4,CLOTHING DROP BOX LOCATION PERMIT
P90-4688308,JACS TORONTO,25,RICHVIEW RD,,"TORONTO, ON",M9A 4Y3,(416) 638-0350,,4,CLOTHING DROP BOX LOCATION PERMIT
P90-4688309,JACS TORONTO,39,RICHVIEW RD,,"TORONTO, ON",M9A 4M7,(416) 638-0350,,4,CLOTHING DROP BOX LOCATION PERMIT
P90-4688842,CANADIAN DIABETES ASSOCIATION,404,OLD WESTON RD,,"TORONTO, ON",M6N 3B1,(416) 363-3373,,17,CLOTHING DROP BOX LOCATION PERMIT
P90-4690456,JACS TORONTO,946,LAWRENCE AVE E,,"TORONTO, ON",M3C 1R1,(416) 638-0350,,25,CLOTHING DROP BOX LOCATION PERMIT
P90-4690458,JACS TORONTO,980,LAWRENCE AVE E,,"TORONTO, ON",M3C 1R2,(416) 638-0350,,25,CLOTHING DROP BOX LOCATION PERMIT
P90-4690461,JACS TORONTO,2301,VICTORIA PARK AVE,,"TORONTO, ON",M1R 1W5,(416) 638-0350,,40,CLOTHING DROP BOX LOCATION PERMIT
P90-4690462,JACS TORONTO,2727,VICTORIA PARK AVE,,"TORONTO, ON",M1T 1A6,(416) 638-0350,,40,CLOTHING DROP BOX LOCATION PERMIT
P90-4691996,AMJ RECYCLING INC,41,GARFELLA DR,,"TORONTO, ON",M9V 2G3,(647) 295-6973,AMJ RECYCLING INC,1,CLOTHING DROP BOX LOCATION PERMIT
P90-4704005,AMJ RECYCLING INC,4271,SHEPPARD AVE E,,"TORONTO, ON",M1S 4G4,(647) 295-6973,AMJ RECYCLING INC,41,CLOTHING DROP BOX LOCATION PERMIT
P90-4707726,AMJ RECYCLING INC,251-261,SCARLETT RD,,"TORONTO, ON",M6N 4K9,(647) 295-6973,AMJ RECYCLING INC,11,CLOTHING DROP BOX LOCATION PERMIT
P90-4707729,AMJ RECYCLING INC,130,REXDALE BLVD,,"TORONTO, ON",M9W 1P6,(647) 295-6973,AMJ RECYCLING INC,2,CLOTHING DROP BOX LOCATION PERMIT
P90-4707732,AMJ RECYCLING INC,90,YORK GATE BLVD,,"TORONTO, ON",M3N 2C3,(647) 295-6973,AMJ RECYCLING INC,8,CLOTHING DROP BOX LOCATION PERMIT
P90-4707733,AMJ RECYCLING INC,3495,SHEPPARD AVE E,,"TORONTO, ON",M1T 3K6,(647) 295-6973,AMJ RECYCLING INC,40,CLOTHING DROP BOX LOCATION PERMIT
P90-4709180,AMJ RECYCLING INC,5,LYNVALLEY CRES,,"TORONTO, ON",M1R 2V2,(647) 295-6973,AMJ RECYCLING INC,37,CLOTHING DROP BOX LOCATION PERMIT
P90-4719698,GREEN EARTH USED CLOTHING RECYCLING INC,2715,LAWRENCE AVE E,,"TORONTO, ON",M1P 2S2,(416) 894-1666,GREEN EARTH USED CLOTHING RECYCLING INC,37,CLOTHING DROP BOX LOCATION PERMIT
P90-4719699,GREEN EARTH USED CLOTHING RECYCLING INC,1408,VICTORIA PARK AVE,,"TORONTO, ON",M4A 2L7,(416) 894-1666,GREEN EARTH USED CLOTHING RECYCLING INC,34,CLOTHING DROP BOX LOCATION PERMIT
P90-4719700,GREEN EARTH USED CLOTHING RECYCLING INC,2155,LAWRENCE AVE E,,"TORONTO, ON",M1R 5G9,(416) 894-1666,GREEN EARTH USED CLOTHING RECYCLING INC,37,CLOTHING DROP BOX LOCATION PERMIT
P90-4723932,AMJ RECYCLING INC,812,O'CONNOR DR,,"TORONTO, ON",M4B 2S9,(647) 295-6973,AMJ RECYCLING INC,31,CLOTHING DROP BOX LOCATION PERMIT
P90-4723933,AMJ RECYCLING INC,1200-1236,LAWRENCE AVE E,,"TORONTO, ON",M3A 1C1,(647) 295-6973,AMJ RECYCLING INC,34,CLOTHING DROP BOX LOCATION PERMIT
P90-4729234,GREEN EARTH USED CLOTHING RECYCLING INC,141,DAVISVILLE AVE,,"TORONTO, ON",M4S 1G7,(416) 894-1666,GREEN EARTH USED CLOTHING RECYCLING INC,22,CLOTHING DROP BOX LOCATION PERMIT
P90-4729239,GREEN EARTH USED CLOTHING RECYCLING INC,33,DAVISVILLE AVE,,"TORONTO, ON",M4S 2Y9,(416) 894-1666,GREEN EARTH USED CLOTHING RECYCLING INC,22,CLOTHING DROP BOX LOCATION PERMIT
P90-4736247,GREEN EARTH USED CLOTHING RECYCLING INC,4180,KINGSTON RD,,"TORONTO, ON",M1E 2M4,(416) 894-1666,GREEN EARTH USED CLOTHING RECYCLING INC,43,CLOTHING DROP BOX LOCATION PERMIT
P90-4738800,CANADIAN DIABETES ASSOCIATION,56,CASSANDRA BLVD,,"TORONTO, ON",M3A 1S6,(416) 363-3373,,34,CLOTHING DROP BOX LOCATION PERMIT
P90-4738801,CANADIAN DIABETES ASSOCIATION,88,CASSANDRA BLVD,,"TORONTO, ON",M3A 1S6,(416) 363-3373,,34,CLOTHING DROP BOX LOCATION PERMIT
P90-4738802,CANADIAN DIABETES ASSOCIATION,44,STUBBS DR,,"TORONTO, ON",M2L 2R3,(416) 363-3373,,25,CLOTHING DROP BOX LOCATION PERMIT
P90-4738805,CANADIAN DIABETES ASSOCIATION,11,DERVOCK CRES,,"TORONTO, ON",M2K 1A6,(416) 363-3373,,24,CLOTHING DROP BOX LOCATION PERMIT
P90-4738806,CANADIAN DIABETES ASSOCIATION,75,TALARA DR,,"TORONTO, ON",M2K 2X4,(416) 363-3373,,24,CLOTHING DROP BOX LOCATION PERMIT
P90-4738807,CANADIAN DIABETES ASSOCIATION,65,BRIDESBURG DR,,"TORONTO, ON",M9R 2K4,(416) 363-3373,,2,CLOTHING DROP BOX LOCATION PERMIT
P90-4738808,CANADIAN DIABETES ASSOCIATION,25,BRIDESBURG DR,,"TORONTO, ON",M9R 2K6,(416) 363-3373,,2,CLOTHING DROP BOX LOCATION PERMIT
P90-4738811,CANADIAN DIABETES ASSOCIATION,15,BRIDESBURG DR,,"TORONTO, ON",M9R 2K5,(416) 363-3373,,2,CLOTHING DROP BOX LOCATION PERMIT
P90-4738812,CANADIAN DIABETES ASSOCIATION,190,KINGSVIEW BLVD,,"TORONTO, ON",M9R 1V5,(416) 363-3373,,2,CLOTHING DROP BOX LOCATION PERMIT
P90-4738813,CANADIAN DIABETES ASSOCIATION,186,KINGSVIEW BLVD,,"TORONTO, ON",M9R 1V5,(416) 363-3373,,2,CLOTHING DROP BOX LOCATION PERMIT
P90-4738814,CANADIAN DIABETES ASSOCIATION,15,BLACKFRIAR AVE,,"TORONTO, ON",M9R 3S5,(416) 363-3373,,2,CLOTHING DROP BOX LOCATION PERMIT
P90-4739113,B & T TEXTILE INC,2111,JANE ST,,"TORONTO, ON",M3M 1A2,(647) 221-8531,B & T TEXTILE,9,CLOTHING DROP BOX LOCATION PERMIT
P90-4739502,CANADIAN DIABETES ASSOCIATION,51,GERRY FITZGERALD DR,,"TORONTO, ON",M3J 3N4,(416) 363-3373,,8,CLOTHING DROP BOX LOCATION PERMIT
P90-4739503,CANADIAN DIABETES ASSOCIATION,10,BLACKFRIAR AVE,,"TORONTO, ON",M9R 3S4,(416) 363-3373,,2,CLOTHING DROP BOX LOCATION PERMIT
P90-4739504,CANADIAN DIABETES ASSOCIATION,41,BLACKFRIAR AVE,,"TORONTO, ON",M9R 3S4,(416) 363-3373,,2,CLOTHING DROP BOX LOCATION PERMIT
P90-4746055,CANADIAN DIABETES ASSOCIATION,51,GERRY FITZGERALD DR,,"TORONTO, ON",M3J 3N4,(416) 363-3373,,8,CLOTHING DROP BOX LOCATION PERMIT
P90-4807702,AMJ RECYCLING INC,1795,ST CLAIR AVE W,,"TORONTO, ON",M6N 1J7,(647) 295-6973,AMJ RECYCLING INC,17,CLOTHING DROP BOX LOCATION PERMIT
